{"type": "FeatureCollection", "features": [{"type": "Feature", "geometry": {"type": "Polygon", "coordinates": [[[-88.09780336259531, 40.01129385785603], [-88.0971745412759, 40.01129385778844], [-88.09690504664056, 40.01111419600018], [-88.0965457210438, 40.01111419557081], [-88.09501858485258, 40.011114196030476], [-88.09465925876496, 40.011114194661914], [-88.0941202697805, 40.01111419472481], [-88.09349144915122, 40.01111419500595], [-88.09286262822728, 40.01111419481336], [-88.09061684054286, 40.01111419478844], [-88.09061684011265, 40.01075486851691], [-88.09034734547448, 40.01048537456008], [-88.08998801978605, 40.01048537401043], [-88.0899880200505, 40.010126048589484], [-88.09034734521583, 40.01012604832394], [-88.09034734612639, 40.008868406656944], [-88.09034734625143, 40.00859891198137], [-88.09034734599278, 40.00823958607375], [-88.09034734611782, 40.00797009148025], [-88.09034734603851, 40.00581413503404], [-88.09034734587813, 40.00545480872118], [-88.08998801917194, 40.005454809207365], [-88.08998801914667, 40.004556493438535], [-88.09034734606603, 40.004556493249126], [-88.09034734615643, 40.00267003155936], [-88.08998801926047, 40.00267003115516], [-88.08998801972139, 40.00231070531365], [-88.08971852480276, 40.00204121073785], [-88.08846088324412, 40.00204121055578], [-88.08783206310203, 40.002041210717124], [-88.08783206295368, 40.00231070513216], [-88.08576593730781, 40.00231070486263], [-88.08576593714098, 40.001053063715155], [-88.0857268003767, 39.99956506431608], [-88.08567610624749, 39.99925643294836], [-88.08567610582263, 39.9986276126855], [-88.08567610602037, 39.99701064469116], [-88.08567610634745, 39.99683098247358], [-88.08594560084298, 39.996830982252156], [-88.08630492716391, 39.99683098167671], [-88.08630492713495, 39.997010644709434], [-88.08720324273155, 39.99701064489585], [-88.08720324168954, 39.99683098193734], [-88.0875625686967, 39.99683098229159], [-88.08810155788238, 39.99683098215877], [-88.08846088351541, 39.99683098165221], [-88.08873037850054, 39.9968309817663], [-88.09061684045028, 39.996830982337904], [-88.09061684061628, 39.99701064470272], [-88.09187448175851, 39.997010644984705], [-88.09187448207551, 39.996830981953046], [-88.09223380760898, 39.996830982308325], [-88.09250330171, 39.996830982346076], [-88.09313212340501, 39.99683098241306], [-88.09349144864386, 39.996830981844994], [-88.09465925942301, 39.996830981880365], [-88.09501858525032, 39.99683098236175], [-88.09501858549407, 39.99692081365315], [-88.09501858456022, 39.99701064487425], [-88.09501858489257, 39.99763946575431], [-88.0946592585506, 39.99763946549538], [-88.09465925880615, 39.99799879178736], [-88.09465925926767, 39.99826828678796], [-88.09501858522488, 39.998268286824455], [-88.09501858565541, 39.9988971071954], [-88.0950185853388, 40.00015474843401], [-88.09528807992355, 40.00042424312353], [-88.09942033022816, 40.0004242432453], [-88.1043610635669, 40.00042424307221], [-88.10436106368508, 40.00455649313075], [-88.10436106460251, 40.00545480837838], [-88.10445089515018, 40.00545480832096], [-88.1044508959473, 40.0058141347071], [-88.10445089539195, 40.00608362924125], [-88.10445089541818, 40.007610765499344], [-88.10445089524057, 40.0103955426396], [-88.10436106420859, 40.011114194879234], [-88.10247460173225, 40.01111419468243], [-88.10220510728921, 40.01111419517299], [-88.1022051071065, 40.01120402649097], [-88.10130679169554, 40.01120402637938], [-88.10094746632636, 40.011114195489355], [-88.09968982408789, 40.011114194800165], [-88.0978033621045, 40.01111419536448], [-88.09780336259531, 40.01129385785603]], [[-88.10283392803038, 40.006083629209435], [-88.10346274913978, 40.00608362982949], [-88.10346274869481, 40.00581413499906], [-88.10373224306093, 40.00581413485349], [-88.10409156950413, 40.005814135293285], [-88.10409156932835, 40.005454808833086], [-88.10310342319579, 40.00545480874951], [-88.10283392762729, 40.00545480917911], [-88.10283392749311, 40.005814135120275], [-88.10283392803038, 40.006083629209435]], [[-88.10373224171686, 40.006442956179264], [-88.10310342236626, 40.00644295542334], [-88.10310342267704, 40.00707177649541], [-88.1031034230486, 40.00734127067446], [-88.1034627490898, 40.00734127061248], [-88.10346274835707, 40.007610765567925], [-88.10409156949962, 40.00761076578866], [-88.10409156832411, 40.00671245027172], [-88.10373224171686, 40.006442956179264]]]}, "properties": {"id": "CHA-001", "acres": 446, "crop": "Soybeans", "conf": 1.0, "owner": "A", "lease": "Flex cash rent", "group": "demo", "hv_state": "growing", "cond_label": "On track", "ndvi": 0.52, "vs_own": -0.027, "county_pct": 27, "tilled": false, "tillage_when": null, "cover": "absent", "spots": 2, "lease_flags": 0, "emerged": ["2026-06-04", "2026-06-12"], "dry_down": null, "harvest": null, "spark": [0.21, 0.19, 0.21, 0.23, 0.24, 0.23, 0.24, 0.23, 0.23, 0.23, 0.37, 0.37, 0.41, 0.54, 0.67, 0.81, 0.85, 0.92, 0.88, 0.91, 0.93, 0.92, 0.9, 0.84, 0.74, 0.59]}}, {"type": "Feature", "geometry": {"type": "Polygon", "coordinates": [[[-88.05252827264913, 39.97140865945552], [-88.05252827179535, 39.97113916505554], [-88.05225877815381, 39.971139164672024], [-88.05225877721992, 39.970779838487736], [-88.05225877762089, 39.97015101816459], [-88.0525282723607, 39.97015101795693], [-88.05252827200063, 39.969252702919896], [-88.05252827217097, 39.96889337631506], [-88.05252827249434, 39.96862388230934], [-88.05225877760078, 39.96862388214424], [-88.05225877726522, 39.96763573502982], [-88.05225877767937, 39.967096746333425], [-88.05468422897444, 39.96709674624565], [-88.0546842284047, 39.96736624042512], [-88.05594187015505, 39.967366240495984], [-88.05594187052694, 39.96718657790457], [-88.05657069115051, 39.96718657733815], [-88.05693001698165, 39.96718657776281], [-88.05908597342888, 39.967186577653266], [-88.05908597376288, 39.967366240687014], [-88.06061310957487, 39.96736624073345], [-88.06061311012807, 39.967186577997644], [-88.06097243595319, 39.967186577620396], [-88.06124193054238, 39.96718657734941], [-88.06160125597329, 39.967186578733106], [-88.061601256814, 39.96736624050507], [-88.0616012570054, 39.96862388193031], [-88.06124193007015, 39.968623882697656], [-88.06124192996177, 39.969252703875874], [-88.06160125641401, 39.969252703774494], [-88.06160125601396, 39.97176798597554], [-88.06160125658799, 39.97203748007349], [-88.06160125679675, 39.972396807048234], [-88.06160125677934, 39.97392394216471], [-88.06160125617625, 39.97419343646281], [-88.06187075077365, 39.974193436763734], [-88.06223007666209, 39.974552763977314], [-88.06654199056837, 39.97455276258528], [-88.06654199065557, 39.97482225762567], [-88.06627249595893, 39.97482225762409], [-88.06627249547252, 39.97607989915562], [-88.06627249626179, 39.97733754062134], [-88.06654199098213, 39.97733754002755], [-88.06654199020547, 39.9779663608183], [-88.06627249557772, 39.97796636067154], [-88.06627249578143, 39.97985282298588], [-88.06627249627464, 39.980481643861125], [-88.0665419908275, 39.980481644301896], [-88.06654199024781, 39.98111046425237], [-88.06627249559052, 39.98111046484982], [-88.06627249618225, 39.981739285211496], [-88.0618707510299, 39.98173928500115], [-88.06097243573112, 39.98173928533832], [-88.06097243601937, 39.98137995929179], [-88.05971479506272, 39.98137995882805], [-88.0597147945404, 39.98164945363644], [-88.0569300166768, 39.98164945353585], [-88.05693001695862, 39.98137995894637], [-88.05504355524064, 39.98137995962115], [-88.05504355503965, 39.9816494537684], [-88.05405540827904, 39.981649453463575], [-88.05252827238134, 39.9815596226369], [-88.05225877756558, 39.98137995935564], [-88.05225877777549, 39.98012231792053], [-88.05225877783458, 39.97985282329802], [-88.05252827220195, 39.979852823447374], [-88.05252827279504, 39.977966360723656], [-88.05225877716958, 39.97796636094181], [-88.05225877722863, 39.97769686659504], [-88.05225877743231, 39.97706804599354], [-88.05225877773462, 39.976439224690104], [-88.05252827233662, 39.97643922477016], [-88.05252827253429, 39.97581040469254], [-88.05252827250729, 39.97545107875321], [-88.05252827162643, 39.97482225800589], [-88.05225877720792, 39.97482225755308], [-88.05225877751022, 39.97419343691833], [-88.05225877797028, 39.97329512179616], [-88.05252827264121, 39.97329512173236], [-88.05252827264913, 39.97140865945552]]]}, "properties": {"id": "CHA-002", "acres": 389, "crop": "Soybeans", "conf": 1.0, "owner": "B", "lease": "Fixed cash rent", "group": "demo", "hv_state": "growing", "cond_label": "Greener than usual", "ndvi": 0.631, "vs_own": 0.261, "county_pct": 8, "tilled": false, "tillage_when": null, "cover": "absent", "spots": 1, "lease_flags": 0, "emerged": ["2026-06-04", "2026-06-12"], "dry_down": null, "harvest": null, "spark": [0.19, 0.17, 0.19, 0.21, 0.23, 0.2, 0.22, 0.21, 0.24, 0.26, 0.36, 0.43, 0.48, 0.59, 0.7, 0.82, 0.88, 0.93, 0.94, 0.94, 0.94, 0.92, 0.9, 0.87, 0.79, 0.69]}}, {"type": "Feature", "geometry": {"type": "Polygon", "coordinates": [[[-88.06061311019619, 39.981918948080185], [-88.06160125595538, 39.98200878000556], [-88.06312839280389, 39.982008780031975], [-88.06312839223851, 39.9819189486334], [-88.06411653962799, 39.981918948228575], [-88.06474536015651, 39.9819189487808], [-88.06501485461246, 39.981918948563475], [-88.06600300150414, 39.98191894853443], [-88.06627249663217, 39.9820087794663], [-88.06627249618838, 39.98299692642462], [-88.06627249560276, 39.983625747276186], [-88.06627249605268, 39.98389524177289], [-88.06654199037094, 39.983895242284426], [-88.0665419910671, 39.984524062441196], [-88.06627249546706, 39.984524062893456], [-88.06627249563303, 39.98668001964657], [-88.06627249587333, 39.9870393458518], [-88.06654199022113, 39.98703934561912], [-88.06654199101584, 39.987668165829284], [-88.06627249548477, 39.98766816613637], [-88.0662724955461, 39.988566481706926], [-88.06627249633489, 39.989195302524564], [-88.0571995114416, 39.989195301846344], [-88.05719951184166, 39.99045294328004], [-88.05719951112309, 39.99206991084798], [-88.05693001701263, 39.99206991108602], [-88.05693001671665, 39.99269873179575], [-88.05719951201053, 39.9926987314832], [-88.05719951210737, 39.9944953619918], [-88.05719951181732, 39.99512418328374], [-88.05693001693571, 39.99512418330296], [-88.05693001673838, 39.99575300404432], [-88.05693001663965, 39.99638182408616], [-88.0553130496276, 39.99638182476428], [-88.05531304989562, 39.99611232968364], [-88.05468422893533, 39.99611233012808], [-88.05342658730414, 39.99611232966799], [-88.05342658799734, 39.99629199250964], [-88.05100113634654, 39.99629199316855], [-88.05100113583684, 39.99611232995412], [-88.04938416886165, 39.99611233018558], [-88.04938416895529, 39.99629199273438], [-88.04812652767319, 39.99629199325747], [-88.04785703241808, 39.9961123301206], [-88.04785703222657, 39.99359704737164], [-88.04789616999868, 39.992917531569034], [-88.04799755851431, 39.99230026875069], [-88.0480366961419, 39.99171058462932], [-88.04799512459772, 39.99076400952659], [-88.04812652771581, 39.99018344900473], [-88.04812652692706, 39.989554628578496], [-88.04794686478321, 39.989554628022965], [-88.04794686374623, 39.989195301799995], [-88.04911467409966, 39.98919530249743], [-88.04911467399107, 39.98892580774302], [-88.04938416886827, 39.988925807129014], [-88.05001298900272, 39.988925807552064], [-88.05127063073793, 39.98892580712285], [-88.05225877808248, 39.98892580777086], [-88.05225877822078, 39.989195301779596], [-88.05567237610936, 39.989195302310776], [-88.05567237512699, 39.988925807268714], [-88.05630119651697, 39.988925807688595], [-88.05630119632782, 39.989195302507134], [-88.05693001742775, 39.98919530230319], [-88.05693001761095, 39.98892580763366], [-88.0571995117905, 39.98892580725134], [-88.05719951201617, 39.98668001954204], [-88.05719951128629, 39.98641052430687], [-88.05719951177358, 39.985781703857455], [-88.05719951212245, 39.98551220970161], [-88.05719951153102, 39.98488338855766], [-88.05693001684728, 39.983895241792005], [-88.05693001713546, 39.982368105721406], [-88.05719951152001, 39.98236810601437], [-88.05719951175709, 39.98200877955796], [-88.05719951123763, 39.98182911676023], [-88.05755883785213, 39.9818291170692], [-88.05755883809347, 39.982008779792444], [-88.05845715344147, 39.98200878033521], [-88.05845715340517, 39.981829116871594], [-88.05971479419216, 39.98182911686125], [-88.05998428949361, 39.98182911674821], [-88.06034361522066, 39.98182911710725], [-88.06046362443854, 39.98188877023697], [-88.06061311019619, 39.981918948080185]]]}, "properties": {"id": "CHA-003", "acres": 311, "crop": "Soybeans", "conf": 1.0, "owner": "C", "lease": "50/50 crop share", "group": "demo", "hv_state": "growing", "cond_label": "Greener than usual", "ndvi": 0.801, "vs_own": 0.278, "county_pct": 34, "tilled": false, "tillage_when": null, "cover": "absent", "spots": 1, "lease_flags": 0, "emerged": ["2026-05-14", "2026-06-12"], "dry_down": null, "harvest": null, "spark": [0.2, 0.19, 0.21, 0.22, 0.24, 0.22, 0.23, 0.25, 0.3, 0.35, 0.39, 0.42, 0.43, 0.56, 0.69, 0.81, 0.88, 0.93, 0.94, 0.93, 0.93, 0.92, 0.91, 0.87, 0.86, 0.82]}}, {"type": "Feature", "geometry": {"type": "Polygon", "coordinates": [[[-88.06672165352246, 39.96952219720021], [-88.06672165419818, 39.96889337632616], [-88.0669013162271, 39.96889337661801], [-88.06690131650652, 39.968264556004705], [-88.06690131678593, 39.96763573557767], [-88.06672165319549, 39.967635734988164], [-88.06672165361103, 39.9673662409363], [-88.06690131684552, 39.96718657797904], [-88.06753013734266, 39.967186577243595], [-88.06753013742062, 39.96736624071597], [-88.07004542068532, 39.967366240946774], [-88.07004541990293, 39.96727640891283], [-88.07130306196491, 39.96727640954705], [-88.07157255560591, 39.967276409449575], [-88.07157255604308, 39.9673662404454], [-88.07471666025349, 39.96736624042136], [-88.07471665951253, 39.967276408759226], [-88.07534547989802, 39.967276409195264], [-88.0759743011654, 39.96727640922993], [-88.07624379607815, 39.96727640905532], [-88.07624379519844, 39.96736624049446], [-88.07624379609052, 39.967635735057584], [-88.07597430100626, 39.96763573530653], [-88.07561497530595, 39.967635735703915], [-88.07561497462414, 39.96799506102626], [-88.07597430084711, 39.96799506144392], [-88.07597430126607, 39.97015101784139], [-88.07597430110691, 39.970510344404765], [-88.07561497534321, 39.970510343915386], [-88.07561497554758, 39.97113916488151], [-88.0759743009268, 39.97113916514791], [-88.07597430084503, 39.97176798518832], [-88.07597430072566, 39.97203748031082], [-88.07597430052454, 39.97293579585488], [-88.07597430046376, 39.9732951220014], [-88.07597430161995, 39.97356461650334], [-88.07624379521779, 39.973564616546575], [-88.07624379532855, 39.973923942725605], [-88.07624379514192, 39.974193437159016], [-88.07597430153818, 39.974193437264425], [-88.07579463863378, 39.97455276280602], [-88.07573498426744, 39.974672772415005], [-88.07570480666958, 39.974822257814914], [-88.07570480653567, 39.975181583467005], [-88.0757048067018, 39.9767087195602], [-88.07570480696627, 39.97823585586913], [-88.07561497456705, 39.9783256875383], [-88.07130306189717, 39.97832568744409], [-88.06690131675364, 39.97832568702945], [-88.06690131707889, 39.97733754011648], [-88.0667216540305, 39.977337540200296], [-88.06672165317035, 39.97706804572827], [-88.06672165323255, 39.97518158398073], [-88.0669013169529, 39.974552762677845], [-88.06717081161814, 39.97455276318534], [-88.06717081188633, 39.97419343674153], [-88.06690131703533, 39.973923942163175], [-88.06672165317467, 39.973564616055285], [-88.06672165346917, 39.972037480042346], [-88.06672165404642, 39.97140865931142], [-88.06672165344655, 39.97077983869277], [-88.06717081149114, 39.97077983838315], [-88.0675301377298, 39.970779838759334], [-88.06753013721065, 39.970151017884376], [-88.06717081166614, 39.97015101824873], [-88.06690131684533, 39.97015101847818], [-88.06672165326226, 39.969881523889455], [-88.06672165352246, 39.96952219720021]]]}, "properties": {"id": "CHA-004", "acres": 233, "crop": "Soybeans", "conf": 0.99, "owner": "D", "lease": "Flex cash rent", "group": "demo", "hv_state": "ready", "cond_label": "On track", "ndvi": 0.289, "vs_own": 0.015, "county_pct": 29, "tilled": false, "tillage_when": null, "cover": "indeterminate", "spots": 0, "lease_flags": 0, "emerged": ["2026-06-03", "2026-06-12"], "dry_down": ["2026-09-26", "2026-10-01"], "harvest": null, "spark": [0.3, 0.33, 0.39, 0.44, 0.49, 0.43, 0.31, 0.26, 0.24, 0.22, 0.34, 0.37, 0.43, 0.63, 0.77, 0.88, 0.85, 0.93, 0.94, 0.94, 0.94, 0.92, 0.88, 0.79, 0.64, 0.48, 0.31]}}, {"type": "Feature", "geometry": {"type": "Polygon", "coordinates": [[[-88.0825320022338, 39.996741150944274], [-88.08316082393456, 39.99674115074062], [-88.08378964406447, 39.99674115087769], [-88.08504728533444, 39.99683098190666], [-88.08531677978092, 39.997010645323854], [-88.08531678012419, 39.99826828632227], [-88.08549644346407, 39.99862761253771], [-88.08558627445869, 39.999885253841484], [-88.08558627496133, 40.00042424326003], [-88.0853167799277, 40.00042424352851], [-88.08531678063937, 40.00141238988729], [-88.0855862745745, 40.00141239021125], [-88.08558627515079, 40.002310705437004], [-88.08558627486224, 40.00329885239763], [-88.08558627462303, 40.003568346606414], [-88.08558627435914, 40.00419716747737], [-88.08531678056639, 40.00419716782162], [-88.0853167795605, 40.003927672493134], [-88.08504728550368, 40.00392767307538], [-88.0831608234725, 40.00392767240446], [-88.08280149744067, 40.00392767252906], [-88.08190318191862, 40.0039276723539], [-88.08127436172926, 40.00392767302587], [-88.08037604620463, 40.003927672695916], [-88.07974722522835, 40.0039276728518], [-88.07848958346966, 40.00392767270489], [-88.07597430170793, 40.00392767242974], [-88.07597430070707, 40.00329885251772], [-88.0759743014534, 40.00293952574315], [-88.07624379531251, 40.00231070571027], [-88.07624379568027, 40.00168188473302], [-88.07624379604802, 40.00105306394639], [-88.07624379610024, 39.99988525399591], [-88.07624379596355, 39.99889710678955], [-88.07624379515372, 39.998268286771804], [-88.07597430134086, 39.99826828630056], [-88.07597430096821, 39.997998792255885], [-88.0759743007347, 39.996741150952055], [-88.07687261641088, 39.99674115077627], [-88.07786076262211, 39.99674115036455], [-88.07813025737289, 39.996741150798854], [-88.07911840485693, 39.996741150442354], [-88.07938789931258, 39.99674115085116], [-88.08037604571449, 39.99674115040127], [-88.08217267645868, 39.99674115060274], [-88.0825320022338, 39.996741150944274]]]}, "properties": {"id": "CHA-005", "acres": 157, "crop": "Soybeans", "conf": 0.99, "owner": "E", "lease": "Fixed cash rent", "group": "demo", "hv_state": "growing", "cond_label": "On track", "ndvi": 0.632, "vs_own": -0.018, "county_pct": 13, "tilled": false, "tillage_when": null, "cover": "absent", "spots": 1, "lease_flags": 0, "emerged": ["2026-06-04", "2026-06-12"], "dry_down": null, "harvest": null, "spark": [0.19, 0.18, 0.19, 0.21, 0.23, 0.21, 0.22, 0.2, 0.21, 0.22, 0.35, 0.37, 0.33, 0.4, 0.55, 0.72, 0.84, 0.91, 0.89, 0.92, 0.93, 0.92, 0.89, 0.81, 0.65]}}, {"type": "Feature", "geometry": {"type": "Polygon", "coordinates": [[[-88.05719951123763, 39.98182911676023], [-88.05719951175709, 39.98200877955796], [-88.05719951152001, 39.98236810601437], [-88.05693001713546, 39.982368105721406], [-88.05693001684728, 39.983895241792005], [-88.05719951153102, 39.98488338855766], [-88.05719951212245, 39.98551220970161], [-88.05719951177358, 39.985781703857455], [-88.05719951128629, 39.98641052430687], [-88.05719951201617, 39.98668001954204], [-88.0571995117905, 39.98892580725134], [-88.05693001761095, 39.98892580763366], [-88.05693001742775, 39.98919530230319], [-88.05630119632782, 39.989195302507134], [-88.05630119651697, 39.988925807688595], [-88.05567237512699, 39.988925807268714], [-88.05567237610936, 39.989195302310776], [-88.05225877822078, 39.989195301779596], [-88.05225877808248, 39.98892580777086], [-88.05127063073793, 39.98892580712285], [-88.05001298900272, 39.988925807552064], [-88.04938416886827, 39.988925807129014], [-88.04911467399107, 39.98892580774302], [-88.04911467409966, 39.98919530249743], [-88.04794686374623, 39.989195301799995], [-88.04794686453137, 39.988566481670816], [-88.04799273446676, 39.98834253835788], [-88.04794686468765, 39.98703934531582], [-88.04794686439405, 39.98641052487007], [-88.04794686469349, 39.98389524237901], [-88.0479468645974, 39.98326642109686], [-88.04794686416348, 39.98299692680616], [-88.04794686397138, 39.98173928496775], [-88.04812652676807, 39.9817392850126], [-88.04911467401095, 39.98173928526881], [-88.04938416908709, 39.98173928548079], [-88.050372315244, 39.98173928564128], [-88.05252827190492, 39.981739285193036], [-88.05315709256011, 39.98173928556336], [-88.05315709234131, 39.98200878020385], [-88.05378591388373, 39.98200878002451], [-88.05390592311488, 39.9817989389886], [-88.05504355487277, 39.981829116848864], [-88.05719951123763, 39.98182911676023]]]}, "properties": {"id": "CHA-006", "acres": 157, "crop": "Corn", "conf": 0.99, "owner": "F", "lease": "50/50 crop share", "group": "demo", "hv_state": "growing", "cond_label": "On track", "ndvi": 0.649, "vs_own": 0.017, "county_pct": 23, "tilled": false, "tillage_when": null, "cover": "absent", "spots": 0, "lease_flags": 0, "emerged": ["2026-06-04", "2026-06-12"], "dry_down": null, "harvest": null, "spark": [0.2, 0.18, 0.19, 0.2, 0.23, 0.21, 0.22, 0.2, 0.2, 0.2, 0.4, 0.5, 0.59, 0.67, 0.78, 0.89, 0.9, 0.92, 0.9, 0.89, 0.88, 0.89, 0.88, 0.87, 0.79, 0.7]}}, {"type": "Feature", "geometry": {"type": "Polygon", "coordinates": [[[-88.05944530033018, 39.99611233011083], [-88.05908597394837, 39.99611232987639], [-88.0588164793824, 39.99611232971277], [-88.05881647921696, 39.99638182486318], [-88.05693001663965, 39.99638182408616], [-88.05693001673838, 39.99575300404432], [-88.05693001693571, 39.99512418330296], [-88.05719951181732, 39.99512418328374], [-88.05719951210737, 39.9944953619918], [-88.05719951201053, 39.9926987314832], [-88.05693001671665, 39.99269873179575], [-88.05693001701263, 39.99206991108602], [-88.05719951112309, 39.99206991084798], [-88.05719951184166, 39.99045294328004], [-88.0571995114416, 39.989195301846344], [-88.06627249633489, 39.989195302524564], [-88.06627249486739, 39.98982412249302], [-88.06627249628517, 39.99018344931237], [-88.06654199056392, 39.990183449224865], [-88.06654199027973, 39.990812269416054], [-88.06627249599507, 39.990812269652395], [-88.06627249567332, 39.992968226583386], [-88.06627249548174, 39.993597046872566], [-88.06654199070329, 39.99359704693026], [-88.06654199041908, 39.994225868149556], [-88.06627249646763, 39.99422586742579], [-88.06627249545552, 39.99575300401323], [-88.06627249589295, 39.996112330000344], [-88.06627249654002, 39.99638182432763], [-88.05944530026927, 39.9963818242229], [-88.05944530033018, 39.99611233011083]]]}, "properties": {"id": "CHA-007", "acres": 154, "crop": "Corn", "conf": 0.89, "owner": "G", "lease": "Flex cash rent", "group": "demo", "hv_state": "growing", "cond_label": "On track", "ndvi": 0.487, "vs_own": 0.023, "county_pct": 73, "tilled": false, "tillage_when": null, "cover": "absent", "spots": 0, "lease_flags": 0, "emerged": ["2026-05-14", "2026-06-04"], "dry_down": null, "harvest": null, "spark": [0.2, 0.18, 0.2, 0.21, 0.23, 0.22, 0.22, 0.24, 0.28, 0.32, 0.49, 0.61, 0.72, 0.82, 0.87, 0.92, 0.91, 0.92, 0.92, 0.91, 0.9, 0.83, 0.85, 0.81, 0.66, 0.56]}}, {"type": "Feature", "geometry": {"type": "Polygon", "coordinates": [[[-88.09501858468114, 39.99296822589654], [-88.09501858545975, 39.993327552198004], [-88.0950185856843, 39.99449536251231], [-88.09501858483905, 39.99512418255864], [-88.0946592591169, 39.99512418333693], [-88.09465925937346, 39.99638182451806], [-88.09501858540547, 39.99638182425837], [-88.09501858486098, 39.99665131890123], [-88.09438976454436, 39.99665131929384], [-88.09438976391712, 39.996381824428475], [-88.09376094331178, 39.99638182419838], [-88.09349144883664, 39.99638182403774], [-88.09313212349116, 39.996381824457444], [-88.09313212302737, 39.996651318655864], [-88.08998802006403, 39.99665131898767], [-88.08998801937952, 39.99638182397318], [-88.08935919867383, 39.996381824128235], [-88.08908970429583, 39.996381824397375], [-88.0884608830989, 39.99638182450998], [-88.0884608840357, 39.9966513190061], [-88.08567610559533, 39.996651319307865], [-88.0856761062263, 39.989195302397185], [-88.08594560051084, 39.9891953021787], [-88.08630492648493, 39.98919530220002], [-88.08693374752785, 39.989195302491744], [-88.0869337481644, 39.98955462799863], [-88.08998801911326, 39.98955462784389], [-88.08998801977056, 39.9891953024866], [-88.09034734574306, 39.98919530170949], [-88.09097616688119, 39.989195302401306], [-88.09097616636218, 39.989554628351215], [-88.09465925942524, 39.98955462863407], [-88.09465925870926, 39.98982412246929], [-88.09501858508072, 39.989824122507116], [-88.09501858525446, 39.991081764569884], [-88.09501858499151, 39.99206991145122], [-88.09465925925107, 39.99206991126554], [-88.0946592591539, 39.992968226007456], [-88.09501858468114, 39.99296822589654]]]}, "properties": {"id": "CHA-008", "acres": 153, "crop": "Corn", "conf": 0.9, "owner": "H", "lease": "Fixed cash rent", "group": "demo", "hv_state": "growing", "cond_label": "Greener than usual", "ndvi": 0.676, "vs_own": 0.158, "county_pct": 78, "tilled": true, "tillage_when": "fall", "cover": "indeterminate", "spots": 0, "lease_flags": 1, "emerged": ["2026-06-03", "2026-06-04"], "dry_down": null, "harvest": null, "spark": [0.21, 0.19, 0.22, 0.23, 0.24, 0.22, 0.23, 0.23, 0.25, 0.26, 0.55, 0.63, 0.8, 0.84, 0.89, 0.93, 0.94, 0.94, 0.94, 0.93, 0.92, 0.91, 0.87, 0.78, 0.69]}}, {"type": "Feature", "geometry": {"type": "Polygon", "coordinates": [[[-88.07561497462414, 39.96799506102626], [-88.07561497530595, 39.967635735703915], [-88.07597430100626, 39.96763573530653], [-88.07624379609052, 39.967635735057584], [-88.07624379519844, 39.96736624049446], [-88.07974722499439, 39.96736624067039], [-88.07974722481211, 39.967635735231156], [-88.07974722577892, 39.967995061143235], [-88.0800167200512, 39.96799506162966], [-88.08001672045495, 39.969252702762674], [-88.07974722499374, 39.96925270249911], [-88.07974722530169, 39.97077983874564], [-88.07974722509141, 39.97113916511604], [-88.07974722500747, 39.9714086592668], [-88.0797472258903, 39.97203748004891], [-88.07974722450285, 39.972396806558365], [-88.07974722502185, 39.974193436909225], [-88.08001672009475, 39.974193436873485], [-88.08001672015432, 39.97455276285979], [-88.08001671990469, 39.974822257371024], [-88.08199301426657, 39.974822257300964], [-88.0819628344301, 39.97497174235755], [-88.08172351903593, 39.975451077880884], [-88.08160351009498, 39.97569039474745], [-88.08124418317708, 39.97640904754194], [-88.07998654230568, 39.97892433040041], [-88.0798967102459, 39.97910399301644], [-88.0797170458565, 39.97946331906567], [-88.07872890003624, 39.98143961274328], [-88.07857941432444, 39.981829116682604], [-88.07687261631175, 39.98182911698661], [-88.07579463798189, 39.981739285223284], [-88.07579463756784, 39.981379959342796], [-88.0757946375327, 39.978325687129505], [-88.07588446955495, 39.978325687310736], [-88.07588446996691, 39.9779663611977], [-88.0758844691528, 39.97670871924611], [-88.07588446910884, 39.974822257798124], [-88.07588446926101, 39.97473242596857], [-88.0766929530488, 39.974552762554296], [-88.0768726146169, 39.974552762904906], [-88.07750143594203, 39.97455276292756], [-88.07750143660033, 39.9741934370876], [-88.07750143753184, 39.973564616329], [-88.0772319430519, 39.97356461623779], [-88.07687261662073, 39.97356461578613], [-88.07642345905145, 39.973923942161974], [-88.07624379532855, 39.973923942725605], [-88.07624379521779, 39.973564616546575], [-88.07597430161995, 39.97356461650334], [-88.07597430046376, 39.9732951220014], [-88.07597430052454, 39.97293579585488], [-88.07597430072566, 39.97203748031082], [-88.07597430084503, 39.97176798518832], [-88.0759743009268, 39.97113916514791], [-88.07561497554758, 39.97113916488151], [-88.07561497534321, 39.970510343915386], [-88.07597430110691, 39.970510344404765], [-88.07597430126607, 39.97015101784139], [-88.07597430084711, 39.96799506144392], [-88.07561497462414, 39.96799506102626]]]}, "properties": {"id": "CHA-009", "acres": 137, "crop": "Corn", "conf": 0.63, "owner": "A", "lease": "50/50 crop share", "group": "demo", "hv_state": "ready", "cond_label": "On track", "ndvi": 0.294, "vs_own": -0.042, "county_pct": 40, "tilled": true, "tillage_when": "fall", "cover": "indeterminate", "spots": 0, "lease_flags": 1, "emerged": ["2026-06-03", "2026-06-12"], "dry_down": ["2026-09-26", "2026-10-01"], "harvest": null, "spark": [0.2, 0.19, 0.2, 0.23, 0.21, 0.22, 0.23, 0.23, 0.25, 0.26, 0.53, 0.59, 0.75, 0.81, 0.86, 0.9, 0.91, 0.92, 0.91, 0.89, 0.89, 0.87, 0.83, 0.77, 0.65, 0.48, 0.31]}}, {"type": "Feature", "geometry": {"type": "Polygon", "coordinates": [[[-88.05881647788347, 39.99701064486684], [-88.05971479619998, 39.99701064533902], [-88.05971479299264, 39.996741150107184], [-88.05998428919882, 39.99656148739887], [-88.06034361517828, 39.996561487587115], [-88.06034361424611, 39.99674115016476], [-88.06187074964872, 39.99674115002166], [-88.06187075172525, 39.99799879182948], [-88.06187075125209, 39.99826828647949], [-88.06187075036773, 39.99925643328512], [-88.06187075049195, 40.00015474837813], [-88.0628588974274, 40.00015474821807], [-88.06411653780712, 40.00015474836005], [-88.06438603439526, 40.000154748878664], [-88.06438603394564, 40.0004242432127], [-88.06474535894324, 40.00042424298022], [-88.06474536007696, 40.000783569406295], [-88.06501485421724, 40.00078356916976], [-88.06501485485255, 40.00105306440038], [-88.06474535862134, 40.001053063673076], [-88.0647453596565, 40.001412391097396], [-88.06411653891314, 40.00168188427423], [-88.06375721331017, 40.001681884862], [-88.06411653925394, 40.002041211066945], [-88.06411653906856, 40.002310704831096], [-88.06438603423254, 40.002310705643524], [-88.06438603356732, 40.00267003239636], [-88.06411653940941, 40.00267003173277], [-88.06375721366834, 40.00267003172895], [-88.06375721312942, 40.003298851845024], [-88.0641165396634, 40.00329885169996], [-88.06438603382725, 40.00329885221468], [-88.06438603337762, 40.003568346957245], [-88.06474535988607, 40.00356834672089], [-88.06474535953173, 40.00204121031095], [-88.06537418092292, 40.001681884587796], [-88.06627249565932, 40.001681884474706], [-88.06627249609126, 40.00141239042394], [-88.06654199102087, 40.00141239039986], [-88.06654199114219, 40.002670031529455], [-88.06654199055589, 40.0035683470466], [-88.0662724964089, 40.003927673152106], [-88.06600300118947, 40.004197167646645], [-88.0656436755585, 40.00419716725057], [-88.06537418057394, 40.00419716779934], [-88.06537418024392, 40.00455649369221], [-88.06537418114945, 40.00482598844959], [-88.06537418081945, 40.00518531445163], [-88.06537418054728, 40.00545480921645], [-88.06501485431096, 40.00545480917573], [-88.06501485419206, 40.006083629467604], [-88.06501485441835, 40.00644295583695], [-88.06501485407315, 40.006712449950705], [-88.06501485429945, 40.007071776429335], [-88.06375721307184, 40.00734127126882], [-88.06348771893984, 40.00734127126461], [-88.06312839218701, 40.00734127087971], [-88.06249957208558, 40.00734127098041], [-88.06249957161822, 40.00761076669625], [-88.06223007765777, 40.0073412709511], [-88.06223007693643, 40.006083629334995], [-88.0622300771395, 40.0058141346332], [-88.0622300778028, 40.00545480844354], [-88.06249957221287, 40.00545480891964], [-88.06312839237167, 40.005454808971905], [-88.06312839273453, 40.00518531457537], [-88.06312839253182, 40.00482598782893], [-88.06285889940385, 40.00482598773568], [-88.06285889943497, 40.00518531455657], [-88.06187075075805, 40.005185315403246], [-88.06187075096364, 40.00482598828451], [-88.06160125675116, 40.0041971680994], [-88.06124193012063, 40.003927672906016], [-88.0606131093032, 40.003927672391086], [-88.05908597338875, 40.003927673178495], [-88.05908597330625, 40.00356834627368], [-88.05782833275252, 40.00356834619745], [-88.05719951193308, 40.00356834633745], [-88.05719951182857, 40.0029395260478], [-88.05693001723895, 40.002939526150975], [-88.05693001722489, 40.00267003148155], [-88.0569300171404, 40.00168188495654], [-88.05719951196845, 40.00141238983054], [-88.05719951220696, 39.999885253848035], [-88.05719951204948, 39.99952592793692], [-88.05693001722511, 39.99952592810988], [-88.0569300173238, 39.99889710711756], [-88.05693001624495, 39.99826828624097], [-88.05719951341258, 39.99826828651506], [-88.05719951031577, 39.99674115084094], [-88.05845715293341, 39.99674115057084], [-88.0588164779503, 39.996741150524365], [-88.05881647788347, 39.99701064486684]]]}, "properties": {"id": "CHA-010", "acres": 134, "crop": "Soybeans", "conf": 0.95, "owner": "B", "lease": "Flex cash rent", "group": "demo", "hv_state": "growing", "cond_label": "Drying down early", "ndvi": 0.365, "vs_own": -0.192, "county_pct": 10, "tilled": false, "tillage_when": null, "cover": "indeterminate", "spots": 0, "lease_flags": 0, "emerged": ["2026-06-03", "2026-06-04"], "dry_down": null, "harvest": null, "spark": [0.21, 0.2, 0.23, 0.25, 0.24, 0.24, 0.25, 0.25, 0.27, 0.29, 0.46, 0.53, 0.57, 0.71, 0.8, 0.88, 0.88, 0.93, 0.93, 0.93, 0.92, 0.91, 0.86, 0.74, 0.5, 0.42]}}, {"type": "Feature", "geometry": {"type": "Polygon", "coordinates": [[[-88.10373224358842, 39.96763573515912], [-88.1040915698671, 39.9676357350724], [-88.10409157002113, 39.97015101820543], [-88.10409156956909, 39.970779838528316], [-88.10409156899648, 39.973564615810446], [-88.10247460205825, 39.97356461615334], [-88.10247460218295, 39.97329512173334], [-88.10220510754405, 39.973295121338445], [-88.10184578080296, 39.97329512137141], [-88.10157628714512, 39.97329512148216], [-88.10094746507868, 39.973295122855184], [-88.1009474663832, 39.973564616830366], [-88.09843218368607, 39.973564616012006], [-88.09843218358219, 39.973295121518056], [-88.09780336230068, 39.97329512155173], [-88.09780336239872, 39.97356461619392], [-88.09591690010585, 39.97356461588857], [-88.09591689992723, 39.97329512169096], [-88.09627622617774, 39.97329512154811], [-88.09627622656112, 39.97293579556004], [-88.09627622630913, 39.9726663006273], [-88.09591690085118, 39.9726663006219], [-88.09564740572765, 39.97266630122268], [-88.09528808007347, 39.972666301199716], [-88.09501858485179, 39.972666301342635], [-88.09501858461152, 39.972396806147614], [-88.09501858546561, 39.96862388176072], [-88.09501858572904, 39.967635735134834], [-88.09528808013474, 39.96745607254454], [-88.09564740580832, 39.96745607241999], [-88.0978033621053, 39.9674560726463], [-88.0978033622034, 39.967635734945866], [-88.10067797105565, 39.967635735249985], [-88.10067797099066, 39.96754590387592], [-88.10220510696459, 39.96754590379995], [-88.10220510776297, 39.9676357350999], [-88.10373224358842, 39.96763573515912]]]}, "properties": {"id": "CHA-011", "acres": 124, "crop": "Soybeans", "conf": 0.99, "owner": "C", "lease": "Fixed cash rent", "group": "demo", "hv_state": "growing", "cond_label": "Greener than usual", "ndvi": 0.654, "vs_own": 0.18, "county_pct": 45, "tilled": false, "tillage_when": null, "cover": "absent", "spots": 0, "lease_flags": 0, "emerged": ["2026-06-03", "2026-06-12"], "dry_down": null, "harvest": null, "spark": [0.19, 0.18, 0.19, 0.21, 0.23, 0.21, 0.23, 0.22, 0.22, 0.23, 0.36, 0.43, 0.46, 0.65, 0.84, 0.9, 0.91, 0.94, 0.94, 0.94, 0.94, 0.88, 0.91, 0.86, 0.82, 0.71]}}, {"type": "Feature", "geometry": {"type": "Polygon", "coordinates": [[[-88.0846879589755, 39.992968226832765], [-88.08405913922256, 39.99296822643784], [-88.0840591384216, 39.9933275534103], [-88.0821726770748, 39.993327552640416], [-88.08217267652508, 39.99296822677837], [-88.08154385529731, 39.99296822715336], [-88.08127436127032, 39.99296822691327], [-88.0809150350504, 39.99296822623865], [-88.08064554082671, 39.99296822643043], [-88.0806455407967, 39.99332755273816], [-88.08064554077085, 39.99422586833361], [-88.08091503490793, 39.99422586873404], [-88.08091503518601, 39.996112329452856], [-88.08064554103133, 39.99611232949812], [-88.08064554098424, 39.99638182485198], [-88.08037604581774, 39.99638182432007], [-88.07938789847485, 39.9963818243985], [-88.07938789771616, 39.996561487542785], [-88.07723194412571, 39.99656148760258], [-88.0772319407621, 39.996381824753186], [-88.07687261511359, 39.996381824395534], [-88.07660312014083, 39.996381824750806], [-88.07624379547303, 39.99638182445051], [-88.07318952204416, 39.99638182437879], [-88.0728301962937, 39.99638182411331], [-88.07220137556675, 39.996381824496076], [-88.07193188186628, 39.99638182477829], [-88.0716623881658, 39.996381824483294], [-88.07169256538691, 39.99623233918002], [-88.07175221842604, 39.99611232950801], [-88.07250104898226, 39.9946153714413], [-88.072950205907, 39.9937170558797], [-88.07312986949317, 39.99335772992301], [-88.07336918632451, 39.99296822590492], [-88.0735341781576, 39.99253893891835], [-88.07403957900308, 39.99166232552489], [-88.07444716511046, 39.990812269255436], [-88.0747166597805, 39.99081226944541], [-88.07471665994458, 39.991081764637094], [-88.0772319426641, 39.99108176389487], [-88.07750143647962, 39.99108176427119], [-88.0800167200654, 39.991081764333316], [-88.08001672011834, 39.990812269515665], [-88.08037604653659, 39.99081226986685], [-88.08190318180006, 39.990812270082785], [-88.0819031817647, 39.99108176445477], [-88.0853167803238, 39.99108176466796], [-88.08531677975924, 39.99171058458073], [-88.08549644256568, 39.99171058520932], [-88.085496443575, 39.992339405311405], [-88.08549644330853, 39.99296822641807], [-88.08531677970932, 39.99296822593799], [-88.0846879589755, 39.992968226832765]]]}, "properties": {"id": "CHA-012", "acres": 122, "crop": "Soybeans", "conf": 0.9, "owner": "D", "lease": "50/50 crop share", "group": "demo", "hv_state": "growing", "cond_label": "Drying down early", "ndvi": 0.648, "vs_own": -0.097, "county_pct": 8, "tilled": false, "tillage_when": null, "cover": "absent", "spots": 0, "lease_flags": 0, "emerged": ["2026-06-03", "2026-06-04"], "dry_down": null, "harvest": null, "spark": [0.19, 0.17, 0.2, 0.21, 0.22, 0.21, 0.22, 0.22, 0.24, 0.26, 0.46, 0.53, 0.6, 0.71, 0.8, 0.88, 0.89, 0.94, 0.95, 0.94, 0.94, 0.9, 0.89, 0.81, 0.67]}}, {"type": "Feature", "geometry": {"type": "Polygon", "coordinates": [[[-88.10184578080296, 39.97329512137141], [-88.10220510754405, 39.973295121338445], [-88.10247460218295, 39.97329512173334], [-88.10247460205825, 39.97356461615334], [-88.10409156899648, 39.973564615810446], [-88.10427123210961, 39.9735646157904], [-88.10427123259626, 39.97392394210805], [-88.10409156976121, 39.97392394220217], [-88.10409156940719, 39.97455276275646], [-88.10409156905317, 39.975181583497864], [-88.10409156993482, 39.9760798988709], [-88.10427123218066, 39.976079899295854], [-88.10427123276537, 39.976439225151886], [-88.10427123290566, 39.97706804549157], [-88.10427123246124, 39.97733753994849], [-88.10409156932478, 39.97733754056105], [-88.10409156983206, 39.97922400235297], [-88.10310342310578, 39.979224002801914], [-88.10004915027596, 39.97922400250938], [-88.09942033014109, 39.979224002325154], [-88.09942033018913, 39.97958332841991], [-88.09879150886918, 39.97958332879816], [-88.0987915096138, 39.97922400255518], [-88.09591690022722, 39.979224002647456], [-88.09528808019013, 39.97922400241148], [-88.09501858527179, 39.97922400233276], [-88.09501858475183, 39.97545107821522], [-88.09501858476823, 39.974552763184356], [-88.09528807935202, 39.97419343691349], [-88.09564740558578, 39.974193436491575], [-88.09591690027858, 39.973923942131705], [-88.09591690010585, 39.97356461588857], [-88.09780336239872, 39.97356461619392], [-88.09780336230068, 39.97329512155173], [-88.09843218358219, 39.973295121518056], [-88.09843218368607, 39.973564616012006], [-88.1009474663832, 39.973564616830366], [-88.10094746507868, 39.973295122855184], [-88.10157628714512, 39.97329512148216], [-88.10184578080296, 39.97329512137141]]]}, "properties": {"id": "CHA-013", "acres": 122, "crop": "Corn", "conf": 0.98, "owner": "H", "lease": "Flex cash rent", "group": "demo", "hv_state": "growing", "cond_label": "Greener than usual", "ndvi": 0.69, "vs_own": 0.11, "county_pct": 73, "tilled": true, "tillage_when": "fall", "cover": "indeterminate", "spots": 0, "lease_flags": 1, "emerged": ["2026-06-03", "2026-06-12"], "dry_down": null, "harvest": null, "spark": [0.2, 0.19, 0.22, 0.21, 0.22, 0.22, 0.24, 0.23, 0.25, 0.27, 0.53, 0.67, 0.81, 0.87, 0.89, 0.92, 0.92, 0.93, 0.92, 0.91, 0.91, 0.87, 0.86, 0.8, 0.7]}}, {"type": "Feature", "geometry": {"type": "Polygon", "coordinates": [[[-88.07624379509468, 39.98641052469994], [-88.07597430058517, 39.986141029779475], [-88.06672165410951, 39.986141030649335], [-88.06672165311545, 39.98551220919302], [-88.06672165320025, 39.98488338888901], [-88.0669013161974, 39.98488338850387], [-88.0669013163417, 39.98452406289131], [-88.06690131612864, 39.98389524206842], [-88.06672165324976, 39.98389524230471], [-88.06672165389823, 39.98200877985292], [-88.06779963145821, 39.981918948088435], [-88.06905727288999, 39.98191894865931], [-88.07004541986613, 39.981918948228774], [-88.07031491421887, 39.98191894829368], [-88.07103356689618, 39.98200877973337], [-88.07842905237102, 39.9820391987467], [-88.07795059435588, 39.982996926950904], [-88.07720176455831, 39.984583716657994], [-88.07642345857498, 39.98614102976405], [-88.07630344921903, 39.98638034679805], [-88.07624379509468, 39.98641052469994]]]}, "properties": {"id": "CHA-014", "acres": 104, "crop": "Soybeans", "conf": 1.0, "owner": "F", "lease": "Fixed cash rent", "group": "demo", "hv_state": "growing", "cond_label": "On track", "ndvi": 0.602, "vs_own": 0.023, "county_pct": 34, "tilled": false, "tillage_when": null, "cover": "absent", "spots": 0, "lease_flags": 0, "emerged": ["2026-06-04", "2026-06-12"], "dry_down": null, "harvest": null, "spark": [0.21, 0.19, 0.22, 0.23, 0.24, 0.23, 0.24, 0.22, 0.22, 0.22, 0.39, 0.38, 0.44, 0.58, 0.71, 0.86, 0.89, 0.93, 0.92, 0.91, 0.92, 0.93, 0.91, 0.85, 0.76, 0.66]}}, {"type": "Feature", "geometry": {"type": "Polygon", "coordinates": [[[-88.09438976581313, 39.97455276490474], [-88.09438976495431, 39.97518158290353], [-88.09465925902222, 39.97518158344045], [-88.09483892049151, 39.97518158399642], [-88.09483892209482, 39.97581040477638], [-88.09465925905198, 39.97581040422042], [-88.09438976488008, 39.97581040472119], [-88.09376094422986, 39.975810404780745], [-88.09286262881876, 39.9758104042622], [-88.09286262822617, 39.97607989855859], [-88.09160498720685, 39.9760798993882], [-88.09160498663391, 39.97581040472096], [-88.09124566064563, 39.975810403971956], [-88.08935919839548, 39.97581040397069], [-88.08810155708947, 39.97581040438518], [-88.08720324186982, 39.97581040465929], [-88.08693374720563, 39.97581040437993], [-88.08630492713961, 39.9758104048181], [-88.08594560065869, 39.97581040412294], [-88.08567610560155, 39.97581040470673], [-88.08567610450369, 39.97113916520885], [-88.08630492652868, 39.97113916613975], [-88.0863049272744, 39.97077983829118], [-88.08756256630414, 39.97077984065364], [-88.0884608836238, 39.970779839227234], [-88.08846088444673, 39.971139164703224], [-88.09097616459006, 39.97113916591718], [-88.09097616677705, 39.970779838737634], [-88.09187448124858, 39.97077983872384], [-88.09286262928536, 39.97077983895492], [-88.09286262712185, 39.971139165541025], [-88.09465926024646, 39.971139164985274], [-88.09465925913807, 39.971408660020224], [-88.09438976363367, 39.97140866118743], [-88.09438976375576, 39.97203748010452], [-88.0946592588734, 39.97203748234657], [-88.0946592590307, 39.97239680514355], [-88.09465925781527, 39.97455276277353], [-88.09438976581313, 39.97455276490474]]]}, "properties": {"id": "CHA-015", "acres": 102, "crop": "Corn", "conf": 1.0, "owner": "G", "lease": "50/50 crop share", "group": "demo", "hv_state": "ready", "cond_label": "On track", "ndvi": 0.279, "vs_own": -0.05, "county_pct": 75, "tilled": true, "tillage_when": "fall", "cover": "indeterminate", "spots": 0, "lease_flags": 0, "emerged": ["2026-05-14", "2026-06-03"], "dry_down": ["2026-09-17", "2026-09-26"], "harvest": null, "spark": [0.2, 0.19, 0.23, 0.22, 0.22, 0.21, 0.22, 0.26, 0.33, 0.4, 0.68, 0.82, 0.88, 0.91, 0.92, 0.93, 0.92, 0.93, 0.9, 0.87, 0.86, 0.82, 0.81, 0.72, 0.58, 0.41, 0.29]}}, {"type": "Feature", "geometry": {"type": "Polygon", "coordinates": [[[-88.08998801971235, 39.98488338907399], [-88.09034734539314, 39.984883388743064], [-88.09034734615084, 39.98515288308998], [-88.09061684066253, 39.985152883687604], [-88.0909761663184, 39.985152883265215], [-88.0909761667322, 39.98488338914088], [-88.0912456614096, 39.984883388465676], [-88.09160498659928, 39.9848833889896], [-88.09250330281107, 39.9848833887001], [-88.09313212297171, 39.98488338899433], [-88.0934914488478, 39.9848833886513], [-88.09412026969493, 39.984883388527564], [-88.0946592585578, 39.98488338832336], [-88.09492875333251, 39.984883389615874], [-88.09492875376081, 39.985512209588116], [-88.09465925888207, 39.9855122093333], [-88.09465925920635, 39.986141030531755], [-88.09465925956962, 39.98641052489121], [-88.0949287531111, 39.98641052484938], [-88.09492875416528, 39.987937660380226], [-88.09492875321857, 39.98829698663208], [-88.09465925900277, 39.988925807300184], [-88.09465925942524, 39.98955462863407], [-88.09097616636218, 39.989554628351215], [-88.09097616688119, 39.989195302401306], [-88.09034734574306, 39.98919530170949], [-88.08998801977056, 39.9891953024866], [-88.08998801911326, 39.98955462784389], [-88.0869337481644, 39.98955462799863], [-88.08693374752785, 39.989195302491744], [-88.08630492648493, 39.98919530220002], [-88.08594560051084, 39.9891953021787], [-88.0856761062263, 39.989195302397185], [-88.0856761064613, 39.9857817039618], [-88.08567610665804, 39.98551220938441], [-88.08594560134287, 39.9855122091674], [-88.08630492546321, 39.98551220933862], [-88.08657442112886, 39.98551220962759], [-88.0865744213101, 39.98515288296113], [-88.0869337471525, 39.984883389138105], [-88.08720324153666, 39.984883389043674], [-88.08756256810156, 39.98488338866215], [-88.08783206228921, 39.98488338899945], [-88.08810155765426, 39.98488338883368], [-88.0884608839244, 39.98488338855455], [-88.08908970398927, 39.9848833884499], [-88.08998801971235, 39.98488338907399]]]}, "properties": {"id": "CHA-016", "acres": 96, "crop": "Soybeans", "conf": 1.0, "owner": "H", "lease": "Flex cash rent", "group": "demo", "hv_state": "growing", "cond_label": "Greener than usual", "ndvi": 0.748, "vs_own": 0.078, "county_pct": 15, "tilled": true, "tillage_when": "fall", "cover": "absent", "spots": 3, "lease_flags": 2, "emerged": ["2026-06-15", "2026-06-20"], "dry_down": null, "harvest": null, "spark": [0.2, 0.18, 0.21, 0.23, 0.23, 0.22, 0.23, 0.21, 0.21, 0.21, 0.35, 0.32, 0.37, 0.49, 0.6, 0.76, 0.84, 0.91, 0.93, 0.93, 0.94, 0.89, 0.91, 0.87, 0.76]}}, {"type": "Feature", "geometry": {"type": "Polygon", "coordinates": [[[-88.09438976488008, 39.97581040472119], [-88.09465925905198, 39.97581040422042], [-88.09483892209482, 39.97581040477638], [-88.09483892261905, 39.976439224780044], [-88.09465925908175, 39.976439225187626], [-88.09465925950457, 39.977966360961254], [-88.09483892205624, 39.97796636114643], [-88.094838921641, 39.97832568754583], [-88.09465925936742, 39.97832568743482], [-88.09438976291567, 39.97832568749115], [-88.0937609439768, 39.9783256872551], [-88.09349144850599, 39.97832568723986], [-88.09349145027385, 39.97859518185755], [-88.09286262848374, 39.97859518157797], [-88.09286262672177, 39.97832568681197], [-88.09250330266464, 39.97832568698801], [-88.09061684152807, 39.97832568769296], [-88.0906168396673, 39.97859518186634], [-88.09034734569866, 39.97895450770075], [-88.08998801888606, 39.97895450788134], [-88.08998801891002, 39.979852823381506], [-88.08998801972157, 39.98048164370371], [-88.09034734583831, 39.98048164389313], [-88.09034734649775, 39.980751138564955], [-88.09034734423933, 39.98173928539698], [-88.0887303776238, 39.981739285469175], [-88.0887303775816, 39.98191894861344], [-88.08693374761903, 39.98191894796121], [-88.08693374734992, 39.98173928540947], [-88.08594560102135, 39.98173928493818], [-88.08567610627344, 39.98173928515371], [-88.08567610578737, 39.979852822872495], [-88.08567610560155, 39.97581040470673], [-88.08594560065869, 39.97581040412294], [-88.08630492713961, 39.9758104048181], [-88.08693374720563, 39.97581040437993], [-88.08720324186982, 39.97581040465929], [-88.08810155708947, 39.97581040438518], [-88.08935919839548, 39.97581040397069], [-88.09124566064563, 39.975810403971956], [-88.09160498663391, 39.97581040472096], [-88.09160498720685, 39.9760798993882], [-88.09286262822617, 39.97607989855859], [-88.09286262881876, 39.9758104042622], [-88.09376094422986, 39.975810404780745], [-88.09438976488008, 39.97581040472119]]]}, "properties": {"id": "CHA-017", "acres": 90, "crop": "Soybeans", "conf": 0.98, "owner": "A", "lease": "Fixed cash rent", "group": "demo", "hv_state": "ready", "cond_label": "Drying down early", "ndvi": 0.337, "vs_own": -0.17, "county_pct": 76, "tilled": true, "tillage_when": "fall", "cover": "absent", "spots": 0, "lease_flags": 0, "emerged": ["2026-06-03", "2026-06-12"], "dry_down": ["2026-09-17", "2026-09-26"], "harvest": null, "spark": [0.19, 0.17, 0.19, 0.21, 0.19, 0.19, 0.22, 0.23, 0.26, 0.29, 0.48, 0.55, 0.67, 0.82, 0.91, 0.92, 0.92, 0.95, 0.95, 0.94, 0.93, 0.9, 0.84, 0.67, 0.51, 0.39]}}, {"type": "Feature", "geometry": {"type": "Polygon", "coordinates": [[[-88.08127436083885, 39.98766816653854], [-88.08190318205023, 39.98766816596038], [-88.08217267619602, 39.98766816611623], [-88.08253200286833, 39.98766816579677], [-88.0850472849563, 39.98766816587924], [-88.08531677949304, 39.98766816648953], [-88.08531677963937, 39.98856648134939], [-88.085496442917, 39.98856648160829], [-88.08549644342351, 39.98892580745259], [-88.0854964434633, 39.989824122703794], [-88.08531677990744, 39.99045294309138], [-88.0853167803238, 39.99108176466796], [-88.0819031817647, 39.99108176445477], [-88.08190318180006, 39.990812270082785], [-88.08037604653659, 39.99081226986685], [-88.08001672011834, 39.990812269515665], [-88.0800167200654, 39.991081764333316], [-88.07750143647962, 39.99108176427119], [-88.0772319426641, 39.99108176389487], [-88.07471665994458, 39.991081764637094], [-88.0747166597805, 39.99081226944541], [-88.07444716511046, 39.990812269255436], [-88.07465700552629, 39.990393290128075], [-88.0748963231547, 39.98982412251425], [-88.07501690259694, 39.98958199914761], [-88.07597430138465, 39.987668166342694], [-88.0761539640312, 39.98730883985543], [-88.07624379542253, 39.98730883992617], [-88.07660312216507, 39.987308839642], [-88.07687261614218, 39.98730884047837], [-88.07750143738077, 39.98766816604161], [-88.07786076307525, 39.987668166463735], [-88.07813025820452, 39.98766816638491], [-88.07848958380055, 39.98766816590046], [-88.08064554060813, 39.98766816582683], [-88.08091503504892, 39.98766816600847], [-88.08127436083885, 39.98766816653854]]]}, "properties": {"id": "CHA-018", "acres": 82, "crop": "Corn", "conf": 0.99, "owner": "B", "lease": "50/50 crop share", "group": "demo", "hv_state": "growing", "cond_label": "Greener than usual", "ndvi": 0.798, "vs_own": 0.103, "county_pct": 33, "tilled": false, "tillage_when": null, "cover": "indeterminate", "spots": 0, "lease_flags": 0, "emerged": ["2026-06-04", "2026-06-12"], "dry_down": null, "harvest": null, "spark": [0.23, 0.24, 0.22, 0.23, 0.25, 0.25, 0.26, 0.24, 0.23, 0.22, 0.38, 0.46, 0.6, 0.76, 0.81, 0.9, 0.91, 0.92, 0.92, 0.92, 0.91, 0.87, 0.88, 0.85, 0.81]}}, {"type": "Feature", "geometry": {"type": "Polygon", "coordinates": [[[-88.0662724957887, 39.96826455597041], [-88.06627249573405, 39.96925270368735], [-88.06627249603078, 39.970510345540994], [-88.06627249642541, 39.97113916452422], [-88.06654199024656, 39.97113916534439], [-88.06654199054857, 39.971767985254765], [-88.066272496623, 39.97176798547279], [-88.06627249564347, 39.97239680653366], [-88.06627249566277, 39.97419343665717], [-88.06654199035354, 39.974193436807596], [-88.06654199056837, 39.97455276258528], [-88.06223007666209, 39.974552763977314], [-88.06187075077365, 39.974193436763734], [-88.06160125617625, 39.97419343646281], [-88.06160125677934, 39.97392394216471], [-88.06160125679675, 39.972396807048234], [-88.06160125658799, 39.97203748007349], [-88.06160125601396, 39.97176798597554], [-88.06160125641401, 39.969252703774494], [-88.06124192996177, 39.969252703875874], [-88.06124193007015, 39.968623882697656], [-88.0616012570054, 39.96862388193031], [-88.061601256814, 39.96736624050507], [-88.06160125597329, 39.967186578733106], [-88.06312839285269, 39.96718657899912], [-88.06312839280619, 39.96736624047328], [-88.06564367512934, 39.96736624090346], [-88.06600300145408, 39.96736624045869], [-88.06627249543673, 39.96736624097062], [-88.06627249553581, 39.967995061689926], [-88.0662724957887, 39.96826455597041]], [[-88.06537418017103, 39.97051034510679], [-88.06501485493108, 39.970779838805505], [-88.06501485446765, 39.97113916533952], [-88.06564367505499, 39.971139164687735], [-88.06564367580434, 39.970779839266385], [-88.06600300145689, 39.9707798385946], [-88.0660030009399, 39.9705103448095], [-88.06537418017103, 39.97051034510679]]]}, "properties": {"id": "CHA-019", "acres": 79, "crop": "Corn", "conf": 0.84, "owner": "C", "lease": "Flex cash rent", "group": "demo", "hv_state": "growing", "cond_label": "On track", "ndvi": 0.52, "vs_own": 0.005, "county_pct": 5, "tilled": true, "tillage_when": "fall", "cover": "absent", "spots": 0, "lease_flags": 0, "emerged": ["2026-06-04", "2026-06-12"], "dry_down": null, "harvest": null, "spark": [0.2, 0.17, 0.21, 0.23, 0.21, 0.21, 0.23, 0.22, 0.24, 0.25, 0.36, 0.41, 0.59, 0.71, 0.82, 0.91, 0.85, 0.91, 0.91, 0.91, 0.9, 0.87, 0.85, 0.85, 0.74, 0.61]}}, {"type": "Feature", "geometry": {"type": "Polygon", "coordinates": [[[-88.08217267705588, 39.97518158358494], [-88.08316082299869, 39.97518158353839], [-88.08316082378296, 39.97482225759567], [-88.08405913812246, 39.97482225736028], [-88.08468795895375, 39.97482225799591], [-88.0850472857877, 39.97482225724431], [-88.08531677958848, 39.974822257266815], [-88.08531678005504, 39.974552763128735], [-88.08549644269935, 39.974552762872484], [-88.08549644302056, 39.97518158406382], [-88.08549644344005, 39.975810404552924], [-88.08549644364793, 39.97607989885147], [-88.0854964426502, 39.97796636064571], [-88.08531677970434, 39.97796636142168], [-88.08531678041372, 39.97895450791672], [-88.08549644358752, 39.979224002581944], [-88.08549644344578, 39.98048164430533], [-88.08549644257465, 39.980751138237444], [-88.08531677945226, 39.98173928540767], [-88.08405913844234, 39.98182911660381], [-88.08190318206901, 39.981829116674966], [-88.08190318175387, 39.98173928499263], [-88.08091503571133, 39.98173928532605], [-88.0806455421384, 39.98173928558601], [-88.08064553991943, 39.97985282291751], [-88.080915034652, 39.97985282317752], [-88.08091503629379, 39.97922400266439], [-88.08028621430623, 39.97895450751825], [-88.08037604478578, 39.97886467626696], [-88.0806455398455, 39.97841551832545], [-88.08091503537604, 39.9776968663248], [-88.08114539340671, 39.97711874089018], [-88.08130453874497, 39.976828728922264], [-88.08175369683858, 39.975930413450335], [-88.08181335013494, 39.97581040410387], [-88.08199301353068, 39.975451078650174], [-88.08211302312775, 39.97521176158767], [-88.08217267705588, 39.97518158358494]]]}, "properties": {"id": "CHA-020", "acres": 71, "crop": "Soybeans", "conf": 0.99, "owner": "D", "lease": "Fixed cash rent", "group": "demo", "hv_state": "ready", "cond_label": "Drying down early", "ndvi": 0.327, "vs_own": -0.082, "county_pct": 74, "tilled": true, "tillage_when": "fall", "cover": "absent", "spots": 0, "lease_flags": 0, "emerged": ["2026-06-03", "2026-06-12"], "dry_down": ["2026-09-17", "2026-09-26"], "harvest": null, "spark": [0.19, 0.17, 0.21, 0.22, 0.19, 0.2, 0.23, 0.23, 0.26, 0.3, 0.49, 0.56, 0.68, 0.81, 0.91, 0.89, 0.93, 0.95, 0.82, 0.89, 0.93, 0.91, 0.83, 0.66, 0.49, 0.37]}}, {"type": "Feature", "geometry": {"type": "Polygon", "coordinates": [[[-88.06690131675364, 39.97832568702945], [-88.07130306189717, 39.97832568744409], [-88.07561497456705, 39.9783256875383], [-88.0756149752982, 39.981379959382544], [-88.07561497481304, 39.98173928526303], [-88.07435733341096, 39.98182911693356], [-88.07256070309356, 39.9818291168317], [-88.07256070259712, 39.98173928529553], [-88.0715725567281, 39.981739285694], [-88.07130306216784, 39.98173928558078], [-88.07112339831002, 39.98173928543141], [-88.07067424087232, 39.981739285418286], [-88.06717081077565, 39.981739285493695], [-88.06690131665073, 39.981379958954754], [-88.06690131619487, 39.981110464929365], [-88.06690131642162, 39.98012231759952], [-88.0667216534679, 39.98012231812989], [-88.06672165320666, 39.97895450827316], [-88.06672165358694, 39.978325687262114], [-88.06690131675364, 39.97832568702945]]]}, "properties": {"id": "CHA-021", "acres": 71, "crop": "Corn", "conf": 0.96, "owner": "E", "lease": "50/50 crop share", "group": "demo", "hv_state": "growing", "cond_label": "Drying down early", "ndvi": 0.525, "vs_own": -0.065, "county_pct": 6, "tilled": true, "tillage_when": "fall", "cover": "indeterminate", "spots": 0, "lease_flags": 0, "emerged": ["2026-06-04", "2026-06-12"], "dry_down": null, "harvest": null, "spark": [0.21, 0.2, 0.23, 0.24, 0.25, 0.24, 0.24, 0.23, 0.23, 0.24, 0.46, 0.53, 0.7, 0.78, 0.85, 0.92, 0.92, 0.93, 0.92, 0.92, 0.91, 0.83, 0.86, 0.83, 0.73, 0.59]}}, {"type": "Feature", "geometry": {"type": "Polygon", "coordinates": [[[-88.08441846494453, 39.96736624076923], [-88.08468795873613, 39.96763573551462], [-88.08486762252782, 39.96826455588995], [-88.08459812747455, 39.96862388217734], [-88.0840591392289, 39.968893376375426], [-88.08405913863567, 39.96952219751779], [-88.08405913871727, 39.96988152322743], [-88.08441846425826, 39.97015101774451], [-88.08411879286128, 39.9707496609813], [-88.08375946669914, 39.971468313494874], [-88.08348997152632, 39.97200730218166], [-88.08277131969562, 39.9734446066559], [-88.08217267611994, 39.974552763205324], [-88.08199301426657, 39.974822257300964], [-88.08001671990469, 39.974822257371024], [-88.08001672015432, 39.97455276285979], [-88.08001672009475, 39.974193436873485], [-88.07974722502185, 39.974193436909225], [-88.07974722450285, 39.972396806558365], [-88.0797472258903, 39.97203748004891], [-88.07974722500747, 39.9714086592668], [-88.07974722509141, 39.97113916511604], [-88.07974722530169, 39.97077983874564], [-88.07974722499374, 39.96925270249911], [-88.08001672045495, 39.969252702762674], [-88.0800167200512, 39.96799506162966], [-88.07974722577892, 39.967995061143235], [-88.07974722481211, 39.967635735231156], [-88.07974722499439, 39.96736624067039], [-88.07974722502242, 39.96727640945416], [-88.08001672022706, 39.96727640927413], [-88.08064554003322, 39.96736624029462], [-88.08405913853929, 39.96736624098023], [-88.08441846494453, 39.96736624076923]]]}, "properties": {"id": "CHA-022", "acres": 68, "crop": "Soybeans", "conf": 0.99, "owner": "F", "lease": "Flex cash rent", "group": "demo", "hv_state": "ready", "cond_label": "On track", "ndvi": 0.34, "vs_own": 0.035, "county_pct": 74, "tilled": true, "tillage_when": "fall", "cover": "indeterminate", "spots": 0, "lease_flags": 0, "emerged": ["2026-06-03", "2026-06-12"], "dry_down": ["2026-09-26", "2026-10-01"], "harvest": null, "spark": [0.2, 0.18, 0.2, 0.22, 0.21, 0.21, 0.22, 0.22, 0.23, 0.25, 0.41, 0.5, 0.59, 0.74, 0.9, 0.92, 0.92, 0.95, 0.95, 0.94, 0.94, 0.92, 0.9, 0.86, 0.69, 0.54, 0.37]}}, {"type": "Feature", "geometry": {"type": "Polygon", "coordinates": [[[-88.08549644299055, 39.98578170440343], [-88.08531677961808, 39.98578170369908], [-88.08468795903998, 39.98578170421638], [-88.08405913816699, 39.98578170425881], [-88.08378964443206, 39.985781704140805], [-88.08343031817651, 39.9857817039006], [-88.08280149779277, 39.9857817039569], [-88.08253200258557, 39.98578170373875], [-88.081274361619, 39.98578170425391], [-88.08091503457689, 39.985781703944674], [-88.0806455400554, 39.98578170420671], [-88.08001671937413, 39.98578170375888], [-88.07911840456197, 39.985781704348085], [-88.07848958417286, 39.9857817043459], [-88.07813025749356, 39.985512209580385], [-88.07723194222343, 39.98551220989152], [-88.07705227932618, 39.98551220991037], [-88.07717228826657, 39.98527289248408], [-88.07753161466177, 39.98455424020218], [-88.07786076282319, 39.983895242007236], [-88.07798077215368, 39.98365592525506], [-88.07804042669258, 39.98362574768146], [-88.07807060420657, 39.98347626206033], [-88.07851976144855, 39.98248811541945], [-88.07857941510242, 39.982368105674965], [-88.07874231229172, 39.98204325594056], [-88.0791184049321, 39.98200878032943], [-88.08378964360611, 39.98200877941477], [-88.08441846469174, 39.98200878013029], [-88.08531678026128, 39.98200877964935], [-88.08531677967194, 39.982368106149046], [-88.08531678048101, 39.98263760047135], [-88.0854964431473, 39.982637600731735], [-88.08549644370865, 39.98425456776111], [-88.08549644273914, 39.984524063066324], [-88.08531678006113, 39.9845240631029], [-88.08531677998637, 39.985512209047464], [-88.08549644268437, 39.9855122097518], [-88.08549644299055, 39.98578170440343]]]}, "properties": {"id": "CHA-023", "acres": 66, "crop": "Soybeans", "conf": 0.99, "owner": "G", "lease": "Fixed cash rent", "group": "demo", "hv_state": "growing", "cond_label": "Greener than usual", "ndvi": 0.591, "vs_own": 0.09, "county_pct": 51, "tilled": true, "tillage_when": "fall", "cover": "indeterminate", "spots": 0, "lease_flags": 0, "emerged": ["2026-06-03", "2026-06-12"], "dry_down": null, "harvest": null, "spark": [0.21, 0.19, 0.22, 0.23, 0.18, 0.22, 0.24, 0.23, 0.22, 0.22, 0.38, 0.42, 0.56, 0.69, 0.81, 0.88, 0.88, 0.93, 0.91, 0.91, 0.92, 0.89, 0.89, 0.86, 0.78, 0.65]}}, {"type": "Feature", "geometry": {"type": "Polygon", "coordinates": [[[-88.07318952415142, 39.989195302588115], [-88.07130306204373, 39.98919530210199], [-88.06968609363088, 39.989195302529055], [-88.06905727374054, 39.989195302081825], [-88.06878777905283, 39.989195301923225], [-88.06815895857153, 39.98919530232243], [-88.06779963160048, 39.989195302356826], [-88.06753013779473, 39.98919530224687], [-88.06753013726585, 39.98955462843726], [-88.06672165376239, 39.989554628350085], [-88.06672165362858, 39.98919530186201], [-88.06672165361485, 39.988566481342055], [-88.06672165360116, 39.98793766101096], [-88.0669013170796, 39.98793766106873], [-88.06690131645641, 39.986680019343105], [-88.06672165377078, 39.9866800191365], [-88.06672165410951, 39.986141030649335], [-88.07597430058517, 39.986141029779475], [-88.07624379509468, 39.98641052469994], [-88.07621361843002, 39.986560010463556], [-88.076153964402, 39.98668001977179], [-88.07597430107283, 39.98703934511315], [-88.07585429224993, 39.98727866204431], [-88.07558479659708, 39.98781765157145], [-88.07540513453769, 39.988176977630545], [-88.07504580855526, 39.988895629387095], [-88.07495597618066, 39.98907529266771], [-88.0748963226696, 39.98919530182111], [-88.07471665967843, 39.989195301767374], [-88.07435733359766, 39.98919530177957], [-88.07408783891408, 39.989195302226975], [-88.07345901785447, 39.98919530221183], [-88.07318952415142, 39.989195302588115]]]}, "properties": {"id": "CHA-024", "acres": 64, "crop": "Corn", "conf": 0.88, "owner": "H", "lease": "50/50 crop share", "group": "demo", "hv_state": "growing", "cond_label": "Greener than usual", "ndvi": 0.748, "vs_own": 0.101, "county_pct": 3, "tilled": true, "tillage_when": "spring", "cover": "indeterminate", "spots": 0, "lease_flags": 0, "emerged": ["2026-06-04", "2026-06-12"], "dry_down": null, "harvest": null, "spark": [0.22, 0.21, 0.23, 0.22, 0.24, 0.24, 0.24, 0.21, 0.2, 0.19, 0.32, 0.38, 0.46, 0.59, 0.79, 0.87, 0.9, 0.92, 0.92, 0.9, 0.9, 0.91, 0.89, 0.88, 0.85, 0.78]}}, {"type": "Feature", "geometry": {"type": "Polygon", "coordinates": [[[-88.0748963226696, 39.98919530182111], [-88.07468648196881, 39.98970411335006], [-88.07441698718216, 39.990243103079145], [-88.07414749315664, 39.99078209177794], [-88.07378816607245, 39.99150074417785], [-88.07369833553214, 39.99168040730483], [-88.07318952377558, 39.99269873209024], [-88.07306951386869, 39.99293804812794], [-88.07300986107887, 39.9929682260009], [-88.07283019776881, 39.99296822651623], [-88.07256070275457, 39.99296822725295], [-88.06878777881548, 39.99296822750573], [-88.06878777834186, 39.9926987324363], [-88.0681589580794, 39.99269873210177], [-88.06753013742289, 39.992698732182035], [-88.06753013680576, 39.992968226585305], [-88.06690131692677, 39.992968227303535], [-88.06672165400637, 39.99296822628561], [-88.06672165390201, 39.9914410904792], [-88.06690131672957, 39.99144108994163], [-88.06690131698825, 39.990183448852754], [-88.06753013729724, 39.9901834488078], [-88.06753013782614, 39.98982412250937], [-88.06753013726585, 39.98955462843726], [-88.06753013779473, 39.98919530224687], [-88.06779963160048, 39.989195302356826], [-88.06815895857153, 39.98919530232243], [-88.06878777905283, 39.989195301923225], [-88.06905727374054, 39.989195302081825], [-88.06968609363088, 39.989195302529055], [-88.07130306204373, 39.98919530210199], [-88.07318952415142, 39.989195302588115], [-88.07345901785447, 39.98919530221183], [-88.07408783891408, 39.989195302226975], [-88.07435733359766, 39.98919530177957], [-88.07471665967843, 39.989195301767374], [-88.0748963226696, 39.98919530182111]]]}, "properties": {"id": "CHA-025", "acres": 61, "crop": "Soybeans", "conf": 1.0, "owner": "A", "lease": "Flex cash rent", "group": "demo", "hv_state": "growing", "cond_label": "On track", "ndvi": 0.542, "vs_own": 0.045, "county_pct": 86, "tilled": true, "tillage_when": "spring", "cover": "indeterminate", "spots": 0, "lease_flags": 0, "emerged": ["2026-06-03", "2026-06-04"], "dry_down": null, "harvest": null, "spark": [0.2, 0.18, 0.21, 0.21, 0.23, 0.22, 0.22, 0.22, 0.23, 0.25, 0.47, 0.57, 0.66, 0.75, 0.82, 0.91, 0.91, 0.95, 0.88, 0.91, 0.94, 0.93, 0.92, 0.87, 0.76, 0.62]}}, {"type": "Feature", "geometry": {"type": "Polygon", "coordinates": [[[-88.0946592584381, 39.982368106241296], [-88.09465925908663, 39.983625746942835], [-88.09492875394777, 39.98362574764259], [-88.09492875414537, 39.98389524160481], [-88.09492875333251, 39.984883389615874], [-88.0946592585578, 39.98488338832336], [-88.09412026969493, 39.984883388527564], [-88.0934914488478, 39.9848833886513], [-88.09313212297171, 39.98488338899433], [-88.09250330281107, 39.9848833887001], [-88.09160498659928, 39.9848833889896], [-88.0912456614096, 39.984883388465676], [-88.0909761667322, 39.98488338914088], [-88.0909761663184, 39.985152883265215], [-88.09061684066253, 39.985152883687604], [-88.09034734615084, 39.98515288308998], [-88.09034734539314, 39.984883388743064], [-88.08998801971235, 39.98488338907399], [-88.08908970398927, 39.9848833884499], [-88.0884608839244, 39.98488338855455], [-88.08810155765426, 39.98488338883368], [-88.08783206228921, 39.98488338899945], [-88.08756256810156, 39.98488338866215], [-88.08720324153666, 39.984883389043674], [-88.0869337471525, 39.984883389138105], [-88.0865744213101, 39.98515288296113], [-88.08657442057226, 39.98452406294357], [-88.08630492743875, 39.98452406258036], [-88.08594560110194, 39.98452406285311], [-88.08594560022627, 39.984883388671], [-88.08567610672465, 39.984883388813785], [-88.08567610561393, 39.984254568357336], [-88.08567610594366, 39.982996926379144], [-88.08567610610855, 39.98236810567238], [-88.08567610630531, 39.982098611533104], [-88.08594560122474, 39.98209861124333], [-88.0878320624198, 39.98209861165274], [-88.08908970390092, 39.98209861147776], [-88.08971852527851, 39.982098611641305], [-88.09223380744953, 39.98209861110283], [-88.0937609441371, 39.98209861170403], [-88.09412027010475, 39.9820986113443], [-88.09438976413887, 39.98209861171651], [-88.09465925935034, 39.98209861158555], [-88.0946592584381, 39.982368106241296]]]}, "properties": {"id": "CHA-026", "acres": 59, "crop": "Corn", "conf": 1.0, "owner": "B", "lease": "Fixed cash rent", "group": "demo", "hv_state": "growing", "cond_label": "On track", "ndvi": 0.532, "vs_own": -0.052, "county_pct": 74, "tilled": false, "tillage_when": null, "cover": "indeterminate", "spots": 0, "lease_flags": 0, "emerged": ["2026-05-14", "2026-06-03"], "dry_down": null, "harvest": null, "spark": [0.23, 0.23, 0.28, 0.25, 0.25, 0.26, 0.23, 0.27, 0.31, 0.35, 0.63, 0.76, 0.87, 0.88, 0.9, 0.91, 0.92, 0.92, 0.91, 0.91, 0.9, 0.86, 0.8, 0.68, 0.55]}}, {"type": "Feature", "geometry": {"type": "Polygon", "coordinates": [[[-88.10409156951759, 39.979583328744745], [-88.10427123228963, 39.97958332865126], [-88.10427123208353, 39.980481643898464], [-88.1040915694181, 39.980481644140085], [-88.10409156926008, 39.98111046487068], [-88.10409156920015, 39.981739284899824], [-88.10310342228999, 39.98173928482865], [-88.1031034221711, 39.982008780179555], [-88.10004915056153, 39.982008780254965], [-88.10004915027442, 39.98173928505256], [-88.09843218317603, 39.981739285311235], [-88.0984321833781, 39.98200877999483], [-88.09564740576035, 39.98200877988399], [-88.09564740531789, 39.98173928542263], [-88.0952880792849, 39.981739285549054], [-88.09510841680799, 39.9817392857092], [-88.09504876320987, 39.98161927581297], [-88.09501858503648, 39.98137995915581], [-88.09501858459984, 39.98111046462668], [-88.09501858457848, 39.97958332887248], [-88.09501858527179, 39.97922400233276], [-88.09528808019013, 39.97922400241148], [-88.09591690022722, 39.979224002647456], [-88.0987915096138, 39.97922400255518], [-88.09879150886918, 39.97958332879816], [-88.09942033018913, 39.97958332841991], [-88.09942033014109, 39.979224002325154], [-88.10004915027596, 39.97922400250938], [-88.10310342310578, 39.979224002801914], [-88.10409156983206, 39.97922400235297], [-88.10409156951759, 39.979583328744745]]]}, "properties": {"id": "CHA-027", "acres": 57, "crop": "Soybeans", "conf": 0.99, "owner": "C", "lease": "50/50 crop share", "group": "demo", "hv_state": "growing", "cond_label": "Greener than usual", "ndvi": 0.693, "vs_own": 0.065, "county_pct": 70, "tilled": true, "tillage_when": "fall", "cover": "indeterminate", "spots": 0, "lease_flags": 0, "emerged": ["2026-06-03", "2026-06-12"], "dry_down": null, "harvest": null, "spark": [0.23, 0.23, 0.25, 0.27, 0.22, 0.22, 0.24, 0.23, 0.24, 0.24, 0.39, 0.46, 0.57, 0.76, 0.87, 0.9, 0.91, 0.94, 0.94, 0.94, 0.94, 0.91, 0.91, 0.85, 0.71]}}, {"type": "Feature", "geometry": {"type": "Polygon", "coordinates": [[[-88.06878777881548, 39.99296822750573], [-88.07256070275457, 39.99296822725295], [-88.07283019776881, 39.99296822651623], [-88.07300986107887, 39.9929682260009], [-88.07280001932921, 39.99347703856822], [-88.07229120809649, 39.99449536134416], [-88.07211154551013, 39.99485468859865], [-88.0719915365487, 39.9950940052655], [-88.07175221908734, 39.995483509731486], [-88.07149917333358, 39.99603894691619], [-88.0713928928783, 39.99629199308012], [-88.07130306202147, 39.996381823414175], [-88.06878777840771, 39.9963818247752], [-88.06878777899092, 39.99647165634821], [-88.06779963224466, 39.99647165599101], [-88.06779963172058, 39.99638182434359], [-88.0675301370352, 39.99638182409184], [-88.06708098010823, 39.99638182513214], [-88.06690131688612, 39.99638182489165], [-88.06672165368562, 39.99611233021619], [-88.06672165345329, 39.99575300348855], [-88.0667216532425, 39.995124182772294], [-88.06672165420925, 39.99449536232025], [-88.06690131624205, 39.99449536304051], [-88.06690131697954, 39.99332755258732], [-88.06672165423873, 39.99332755253324], [-88.06672165400637, 39.99296822628561], [-88.06690131692677, 39.992968227303535], [-88.06753013680576, 39.992968226585305], [-88.06753013742289, 39.992698732182035], [-88.0681589580794, 39.99269873210177], [-88.06878777834186, 39.9926987324363], [-88.06878777881548, 39.99296822750573]]]}, "properties": {"id": "CHA-028", "acres": 44, "crop": "Corn", "conf": 1.0, "owner": "D", "lease": "Flex cash rent", "group": "demo", "hv_state": "growing", "cond_label": "On track", "ndvi": 0.485, "vs_own": 0.048, "county_pct": 72, "tilled": true, "tillage_when": "fall", "cover": "indeterminate", "spots": 0, "lease_flags": 0, "emerged": ["2026-06-03", "2026-06-04"], "dry_down": null, "harvest": null, "spark": [0.21, 0.19, 0.21, 0.23, 0.21, 0.21, 0.23, 0.23, 0.25, 0.27, 0.5, 0.63, 0.78, 0.87, 0.9, 0.93, 0.93, 0.92, 0.87, 0.88, 0.9, 0.89, 0.87, 0.82, 0.75, 0.57]}}, {"type": "Feature", "geometry": {"type": "Polygon", "coordinates": [[[-88.06905727364837, 40.0007835693681], [-88.06878777887411, 40.001592053152436], [-88.0683478215203, 40.00253505340939], [-88.06815895752335, 40.00293952629125], [-88.06797929550572, 40.003298851783434], [-88.06779963165233, 40.0032988520886], [-88.06779963171415, 40.00293952626868], [-88.06753013723409, 40.00293952669014], [-88.06753013709921, 40.00329885169509], [-88.06753013775814, 40.00356834665722], [-88.06690131637448, 40.003568346879604], [-88.06690131689913, 40.00329885184305], [-88.06690131717389, 40.0026700316601], [-88.06672165361847, 40.002670031241124], [-88.0667216530905, 40.00231070604755], [-88.06672165347399, 40.000783569685666], [-88.06717081076368, 40.000783569105906], [-88.06779963247902, 40.00078356909945], [-88.06815895819162, 40.000783568902264], [-88.06815895763208, 40.00042424359255], [-88.06779963263932, 40.00042424282593], [-88.0671708111311, 40.000154748944944], [-88.06690131693497, 39.999885253646305], [-88.06672165393447, 39.999525928143896], [-88.06672165331585, 39.9982682863997], [-88.06672165333744, 39.997998791976926], [-88.0667216541841, 39.997639465887346], [-88.06690131641435, 39.99701064494949], [-88.06717081081536, 39.99674115043503], [-88.06779963211521, 39.996651319223055], [-88.06878777897985, 39.99665131943145], [-88.06878777838556, 39.99674115094173], [-88.07112339918673, 39.99674115017808], [-88.07091355776258, 39.99724996208229], [-88.070194905231, 39.99877709772754], [-88.07001524262856, 39.99913642406678], [-88.06962538822178, 40.000062921353084], [-88.06950643068399, 40.000334411997436], [-88.06941659927526, 40.000424243384394], [-88.06905727340043, 40.00042424346658], [-88.06905727364837, 40.0007835693681]], [[-88.06842845316764, 40.00042424338341], [-88.06815895824339, 40.0001547483728], [-88.06815895763208, 40.00042424359255], [-88.06842845316764, 40.00042424338341]]]}, "properties": {"id": "CHA-029", "acres": 41, "crop": "Corn", "conf": 0.92, "owner": "E", "lease": "Fixed cash rent", "group": "demo", "hv_state": "growing", "cond_label": "Drying down early", "ndvi": 0.432, "vs_own": -0.118, "county_pct": 7, "tilled": true, "tillage_when": "fall", "cover": "indeterminate", "spots": 2, "lease_flags": 0, "emerged": ["2026-05-14", "2026-06-03"], "dry_down": null, "harvest": null, "spark": [0.22, 0.22, 0.26, 0.27, 0.29, 0.31, 0.3, 0.3, 0.32, 0.34, 0.56, 0.66, 0.71, 0.75, 0.78, 0.71, 0.81, 0.8, 0.79, 0.78, 0.77, 0.77, 0.74, 0.71, 0.63, 0.5]}}, {"type": "Feature", "geometry": {"type": "Polygon", "coordinates": [[[-88.08378964443206, 39.985781704140805], [-88.08405913816699, 39.98578170425881], [-88.08468795903998, 39.98578170421638], [-88.08531677961808, 39.98578170369908], [-88.08549644299055, 39.98578170440343], [-88.08549644364645, 39.98730884045328], [-88.08531677998414, 39.98730883997168], [-88.08531677949304, 39.98766816648953], [-88.0850472849563, 39.98766816587924], [-88.08253200286833, 39.98766816579677], [-88.08217267619602, 39.98766816611623], [-88.08190318205023, 39.98766816596038], [-88.08127436083885, 39.98766816653854], [-88.08091503504892, 39.98766816600847], [-88.08064554060813, 39.98766816582683], [-88.07848958380055, 39.98766816590046], [-88.07813025820452, 39.98766816638491], [-88.07786076307525, 39.987668166463735], [-88.07750143738077, 39.98766816604161], [-88.07687261614218, 39.98730884047837], [-88.07660312216507, 39.987308839642], [-88.07624379542253, 39.98730883992617], [-88.0761539640312, 39.98730883985543], [-88.07624379541238, 39.98703934559212], [-88.07670705496277, 39.98606530099062], [-88.07705227932618, 39.98551220991037], [-88.07723194222343, 39.98551220989152], [-88.07813025749356, 39.985512209580385], [-88.07848958417286, 39.9857817043459], [-88.07911840456197, 39.985781704348085], [-88.08001671937413, 39.98578170375888], [-88.0806455400554, 39.98578170420671], [-88.08091503457689, 39.985781703944674], [-88.081274361619, 39.98578170425391], [-88.08253200258557, 39.98578170373875], [-88.08280149779277, 39.9857817039569], [-88.08343031817651, 39.9857817039006], [-88.08378964443206, 39.985781704140805]]]}, "properties": {"id": "CHA-030", "acres": 40, "crop": "Soybeans", "conf": 1.0, "owner": "F", "lease": "50/50 crop share", "group": "demo", "hv_state": "growing", "cond_label": "Greener than usual", "ndvi": 0.683, "vs_own": 0.063, "county_pct": 35, "tilled": false, "tillage_when": null, "cover": "absent", "spots": 0, "lease_flags": 0, "emerged": ["2026-06-03", "2026-06-04"], "dry_down": null, "harvest": null, "spark": [0.19, 0.17, 0.18, 0.21, 0.23, 0.2, 0.22, 0.21, 0.23, 0.25, 0.41, 0.45, 0.52, 0.62, 0.75, 0.87, 0.9, 0.94, 0.94, 0.94, 0.94, 0.91, 0.91, 0.89, 0.85, 0.74]}}, {"type": "Feature", "geometry": {"type": "Polygon", "coordinates": [[[-88.0662724957999, 39.99674115034884], [-88.06654198977489, 39.9967411504773], [-88.06654199025625, 39.99701064481154], [-88.06654198968774, 39.99736997086693], [-88.0662724968844, 39.997369970961756], [-88.06627249507783, 39.99763946619244], [-88.0662724950833, 39.99826828611308], [-88.06627249617334, 39.99952592748884], [-88.06654199226281, 39.99952592798569], [-88.06654199227421, 40.0001547483283], [-88.06654198922281, 40.00042424288187], [-88.06627249447072, 40.000424242682705], [-88.06600300197535, 40.000424242944575], [-88.0660030011621, 40.00078356884961], [-88.06537417963904, 40.00078356884595], [-88.06537418044597, 40.00105306400214], [-88.06501485485255, 40.00105306440038], [-88.06501485421724, 40.00078356916976], [-88.06501485408953, 40.00042424289258], [-88.06474535894324, 40.00042424298022], [-88.06438603394564, 40.0004242432127], [-88.06438603439526, 40.000154748878664], [-88.06411653780712, 40.00015474836005], [-88.0628588974274, 40.00015474821807], [-88.06187075049195, 40.00015474837813], [-88.06187075036773, 39.99925643328512], [-88.06187075125209, 39.99826828647949], [-88.06187075172525, 39.99799879182948], [-88.06187074964872, 39.99674115002166], [-88.0628588969867, 39.996741150171815], [-88.06285889643169, 39.99656148700262], [-88.06348772022423, 39.99656148772831], [-88.06375721303701, 39.99656148752114], [-88.06438603290268, 39.996561487091554], [-88.06501485587204, 39.99674115098652], [-88.0662724957999, 39.99674115034884]]]}, "properties": {"id": "CHA-031", "acres": 39, "crop": "Soybeans", "conf": 0.83, "owner": "G", "lease": "Flex cash rent", "group": "demo", "hv_state": "growing", "cond_label": "Greener than usual", "ndvi": 0.568, "vs_own": 0.141, "county_pct": 48, "tilled": false, "tillage_when": null, "cover": "indeterminate", "spots": 0, "lease_flags": 0, "emerged": ["2026-06-04", "2026-06-12"], "dry_down": null, "harvest": null, "spark": [0.23, 0.23, 0.25, 0.25, 0.27, 0.28, 0.3, 0.28, 0.27, 0.26, 0.41, 0.5, 0.59, 0.69, 0.79, 0.87, 0.91, 0.91, 0.9, 0.88, 0.87, 0.84, 0.85, 0.83, 0.8, 0.64]}}, {"type": "Feature", "geometry": {"type": "Polygon", "coordinates": [[[-88.08531678005217, 39.99386654129724], [-88.0853167803706, 39.99485468809826], [-88.08549644280404, 39.99485468820714], [-88.0854964429705, 39.99638182458832], [-88.0840591382801, 39.99656148864785], [-88.08154385551622, 39.99656148752661], [-88.08091503497323, 39.99638182473243], [-88.08064554098424, 39.99638182485198], [-88.08064554103133, 39.99611232949812], [-88.08091503518601, 39.996112329452856], [-88.08091503490793, 39.99422586873404], [-88.08064554077085, 39.99422586833361], [-88.0806455407967, 39.99332755273816], [-88.08064554082671, 39.99296822643043], [-88.0809150350504, 39.99296822623865], [-88.08127436127032, 39.99296822691327], [-88.08154385529731, 39.99296822715336], [-88.08217267652508, 39.99296822677837], [-88.0821726770748, 39.993327552640416], [-88.0840591384216, 39.9933275534103], [-88.08405913922256, 39.99296822643784], [-88.0846879589755, 39.992968226832765], [-88.08531677970932, 39.99296822593799], [-88.085316780494, 39.99332755261343], [-88.08531678005217, 39.99386654129724]]]}, "properties": {"id": "CHA-032", "acres": 37, "crop": "Corn", "conf": 0.99, "owner": "H", "lease": "Fixed cash rent", "group": "demo", "hv_state": "growing", "cond_label": "Greener than usual", "ndvi": 0.828, "vs_own": 0.1, "county_pct": 25, "tilled": false, "tillage_when": null, "cover": "indeterminate", "spots": 0, "lease_flags": 0, "emerged": ["2026-06-04", "2026-06-12"], "dry_down": null, "harvest": null, "spark": [0.21, 0.19, 0.23, 0.23, 0.24, 0.24, 0.25, 0.22, 0.21, 0.2, 0.32, 0.39, 0.54, 0.75, 0.84, 0.89, 0.9, 0.92, 0.92, 0.91, 0.91, 0.9, 0.88, 0.8, 0.83]}}, {"type": "Feature", "geometry": {"type": "Polygon", "coordinates": [[[-88.09465925936742, 39.97832568743482], [-88.094838921641, 39.97832568754583], [-88.09483892043309, 39.9795833282028], [-88.09465925736686, 39.97958332824007], [-88.09465925916321, 39.981110464587516], [-88.09483892134193, 39.981110464253625], [-88.0948389222815, 39.981379958856884], [-88.09483892078705, 39.98173928487525], [-88.09438976317205, 39.981739285340105], [-88.09349144872675, 39.981739285090526], [-88.09349144872803, 39.981918948382265], [-88.09160498853646, 39.98191894842035], [-88.09160498727137, 39.98173928564709], [-88.09034734423933, 39.98173928539698], [-88.09034734649775, 39.980751138564955], [-88.09034734583831, 39.98048164389313], [-88.08998801972157, 39.98048164370371], [-88.08998801891002, 39.979852823381506], [-88.08998801888606, 39.97895450788134], [-88.09034734569866, 39.97895450770075], [-88.0906168396673, 39.97859518186634], [-88.09061684152807, 39.97832568769296], [-88.09250330266464, 39.97832568698801], [-88.09286262672177, 39.97832568681197], [-88.09286262848374, 39.97859518157797], [-88.09349145027385, 39.97859518185755], [-88.09349144850599, 39.97832568723986], [-88.0937609439768, 39.9783256872551], [-88.09438976291567, 39.97832568749115], [-88.09465925936742, 39.97832568743482]]]}, "properties": {"id": "CHA-033", "acres": 37, "crop": "Corn", "conf": 1.0, "owner": "A", "lease": "50/50 crop share", "group": "demo", "hv_state": "growing", "cond_label": "On track", "ndvi": 0.614, "vs_own": 0.023, "county_pct": 78, "tilled": true, "tillage_when": "fall", "cover": "indeterminate", "spots": 0, "lease_flags": 0, "emerged": ["2026-05-14", "2026-06-03"], "dry_down": null, "harvest": null, "spark": [0.23, 0.23, 0.22, 0.24, 0.22, 0.21, 0.22, 0.26, 0.32, 0.38, 0.66, 0.8, 0.87, 0.88, 0.9, 0.91, 0.92, 0.92, 0.92, 0.91, 0.9, 0.87, 0.8, 0.69, 0.62]}}, {"type": "Feature", "geometry": {"type": "Polygon", "coordinates": [[[-88.09968982458656, 39.996112329839654], [-88.09968982413089, 39.99665131960895], [-88.0984321836951, 39.99665131917468], [-88.09843218329671, 39.9963818243838], [-88.09780336249588, 39.99638182464095], [-88.09753386782484, 39.99638182417032], [-88.09753386838312, 39.996651319183606], [-88.09627622613392, 39.99674115064475], [-88.09519824833325, 39.99674115052253], [-88.09519824773456, 39.99638182459606], [-88.0951982476045, 39.99611232998806], [-88.0951982487304, 39.99512418319289], [-88.09564740561312, 39.995124182581435], [-88.09564740590262, 39.99386654149289], [-88.09564740590056, 39.99332755229535], [-88.09690504697805, 39.99332755203009], [-88.0969050473536, 39.99296822639591], [-88.09717454127808, 39.992968226286486], [-88.09816268900398, 39.992968226530245], [-88.09843218263403, 39.99296822639527], [-88.0987915093385, 39.9929682263303], [-88.09879150888811, 39.993327552260894], [-88.09968982430762, 39.99332755216709], [-88.09968982502953, 39.99386654129019], [-88.09942032949867, 39.99386654152483], [-88.09942032948359, 39.99485468861236], [-88.09968982509372, 39.99485468904478], [-88.09968982458656, 39.996112329839654]]]}, "properties": {"id": "CHA-034", "acres": 34, "crop": "Soybeans", "conf": 0.85, "owner": "B", "lease": "Flex cash rent", "group": "demo", "hv_state": "growing", "cond_label": "Greener than usual", "ndvi": 0.643, "vs_own": 0.118, "county_pct": 38, "tilled": true, "tillage_when": "fall", "cover": "indeterminate", "spots": 0, "lease_flags": 0, "emerged": ["2026-05-14", "2026-06-03"], "dry_down": null, "harvest": null, "spark": [0.21, 0.2, 0.25, 0.26, 0.27, 0.26, 0.27, 0.29, 0.32, 0.36, 0.59, 0.68, 0.77, 0.82, 0.86, 0.91, 0.91, 0.93, 0.93, 0.93, 0.93, 0.91, 0.89, 0.81, 0.66]}}, {"type": "Feature", "geometry": {"type": "Polygon", "coordinates": [[[-87.94787454156446, 40.098250778235716], [-87.9485033622944, 40.098250777686935], [-87.94886268844795, 40.09825077878096], [-87.94976100373171, 40.098250777922004], [-87.95038982443916, 40.09825077870587], [-87.9506593192935, 40.09825077873789], [-87.95128813960052, 40.09825077859578], [-87.95191696078635, 40.098250778058876], [-87.95254578167189, 40.09825077705169], [-87.95380342204174, 40.098250778073094], [-87.95443224290547, 40.098250778398494], [-87.95542039007894, 40.098250777694254], [-87.95631870467447, 40.098250778407106], [-87.95694752541661, 40.0982507778162], [-87.95784584116996, 40.09825077846407], [-87.95820516687962, 40.098250777966925], [-87.95865432504577, 40.098250777313915], [-87.95865432507135, 40.09852027248487], [-87.95847466164103, 40.09852027261265], [-87.95847466237596, 40.09950841880754], [-87.95847466250817, 40.10040673393181], [-87.95847466196396, 40.101394881899914], [-87.95820516672256, 40.10139488140082], [-87.95820516761768, 40.10166437538006], [-87.95784584140307, 40.101664376044], [-87.95721702099199, 40.1016643758896], [-87.95667803131995, 40.10166437538701], [-87.95604921117294, 40.10202370196934], [-87.95353392732433, 40.102023701964356], [-87.95353392844336, 40.102293196273486], [-87.95317460121302, 40.10229319629343], [-87.95227628678595, 40.10202370248021], [-87.95128813963655, 40.102023701564605], [-87.9512881392863, 40.10229319721603], [-87.95101864476194, 40.10229319773183], [-87.95065931928937, 40.102293196065936], [-87.95003049879188, 40.1022931962244], [-87.94949150907287, 40.10202370142086], [-87.9494915088466, 40.10166437571134], [-87.94760504665051, 40.1016643759515], [-87.94697622643002, 40.101664375759675], [-87.94535925830608, 40.101664375710236], [-87.9447304379625, 40.10166437594755], [-87.94446094312107, 40.101664375702256], [-87.94446094392795, 40.09977791473394], [-87.94446094390672, 40.0995084186592], [-87.944460943816, 40.098879598508994], [-87.94446094394692, 40.098520272683935], [-87.94473043767925, 40.09852027272001], [-87.94473043772369, 40.09825077778444], [-87.94508976400013, 40.09825077800149], [-87.94535925887705, 40.098250778622365], [-87.94598807983006, 40.0982507781006], [-87.94760504728855, 40.09825077765884], [-87.94787454156446, 40.098250778235716]]]}, "properties": {"id": "CHA-035", "acres": 119, "crop": "Soybeans", "conf": 1.0, "owner": "H", "lease": "Fixed cash rent", "group": "extra", "hv_state": "growing", "cond_label": "Greener than usual", "ndvi": 0.834, "vs_own": 0.296, "county_pct": 47, "tilled": false, "tillage_when": null, "cover": "present", "spots": 0, "lease_flags": 0, "emerged": ["2026-06-04", "2026-06-12"], "dry_down": null, "harvest": null, "spark": [0.36, 0.25, 0.21, 0.23, 0.24, 0.22, 0.23, 0.24, 0.27, 0.24, 0.37, 0.41, 0.5, 0.71, 0.81, 0.9, 0.91, 0.95, 0.95, 0.94, 0.93, 0.93, 0.89, 0.86, 0.84]}}, {"type": "Feature", "geometry": {"type": "Polygon", "coordinates": [[[-87.99972362348717, 40.140503448055185], [-87.99963379149952, 40.14068311055548], [-87.99915445697125, 40.141551248605374], [-87.9989229038822, 40.14208082854346], [-87.99873547614798, 40.14221024669347], [-87.99774732997535, 40.142210246853075], [-87.99734804487838, 40.1421603528875], [-87.99684901503008, 40.14212041562331], [-87.99460322625399, 40.14212041533264], [-87.99460322486254, 40.14023395304389], [-87.99523204683469, 40.14023395298007], [-87.99559137261971, 40.140233953387536], [-87.99586086722856, 40.140233953262154], [-87.9964896885034, 40.14023395315097], [-87.99900497119741, 40.14023395343402], [-87.99927446618936, 40.140233953201594], [-87.99945412784466, 40.140233953515896], [-87.99954395999303, 40.140323784224385], [-87.9996337919592, 40.14023395283487], [-87.9996337917554, 40.14014412182217], [-87.99954395981922, 40.14005429029682], [-87.99810665620768, 40.14005428970561], [-87.99774732966134, 40.14005429009148], [-87.99711850948081, 40.14005429017494], [-87.99684901466684, 40.140054290245516], [-87.99648968900158, 40.14005428979001], [-87.9952320468478, 40.140054290283224], [-87.99496255281527, 40.14005428995379], [-87.9946032264527, 40.14005429034706], [-87.99460322619315, 40.13969496388988], [-87.99460322608444, 40.13879664852723], [-87.99837615058824, 40.13879664844184], [-87.99837615038125, 40.138437322535005], [-87.99900497110883, 40.13843732249062], [-87.99900497070249, 40.13816782779183], [-87.99963379220576, 40.138167828393556], [-87.99963379239557, 40.136640692008754], [-87.99963379187916, 40.136281365996126], [-87.99927446577814, 40.136281365976345], [-87.99927446560929, 40.13502372472274], [-87.99963379140094, 40.13502372422844], [-88.00241856910917, 40.13502372414079], [-88.00234518640706, 40.13530966743797], [-88.00214907464864, 40.13565254476348], [-88.00184940204237, 40.13625118799247], [-88.00157990722208, 40.13679017681196], [-88.00122058185964, 40.13750882927774], [-88.00113017943394, 40.13769129971057], [-88.00095108691634, 40.13804781859985], [-88.00089143381487, 40.138077996462535], [-88.0008607288886, 40.13823011355383], [-88.00059176073601, 40.138766470500144], [-87.99990328694801, 40.14005429020149], [-87.99972362187363, 40.140323784154624], [-87.99972362348717, 40.140503448055185]]]}, "properties": {"id": "CHA-036", "acres": 57, "crop": "Soybeans", "conf": 1.0, "owner": "H", "lease": "50/50 crop share", "group": "extra", "hv_state": "growing", "cond_label": "Greener than usual", "ndvi": 0.828, "vs_own": 0.256, "county_pct": 67, "tilled": false, "tillage_when": null, "cover": "present", "spots": 0, "lease_flags": 0, "emerged": ["2026-05-14", "2026-05-28"], "dry_down": null, "harvest": null, "spark": [0.41, 0.29, 0.25, 0.25, 0.26, 0.26, 0.27, 0.29, 0.31, 0.32, 0.42, 0.51, 0.58, 0.69, 0.8, 0.89, 0.91, 0.94, 0.85, 0.89, 0.91, 0.9, 0.89, 0.87, 0.83]}}]}